,name,address_old,address_new,phone
1,개포1호,서울 강남구 개포동 1229-18,(서울 강남구 논현로16길 5),"02 -573-5699,5499"
2,논현1호,서울 강남구 논현동 184-21,(서울 강남구 강남대로114길 15(논현동)),02 -540-2182
3,대치1호,서울 강남구 대치4동 913-25,(서울 강남구 삼성로69길 11),"02 -556-3599, 558-3599"
4,대치2호,서울 강남구 대치동 990번지 삼성상가 113호 12,"(서울 강남구 도곡로 516, 삼정상가 113호의 12)",02 -556-9963
5,삼성1호,서울 강남구 삼성동 44-18,(서울 강남구 봉은사로 451),"02 -515-2399,2599"
6,세곡,서울 강남구 자곡동 611,(서울 강남구 자곡로 101 강남레미안힐즈상가 103호),02 -2226-1991
7,압구정신사,서울 강남구 신사동 640-5 대성빌딩 1층 1호,"(서울 강남구 언주로172길 29, 대성빌딩 1층 1호)",02 -547-9945
8,역삼1호,서울 강남구 역삼동 837-15,(서울 강남구 강남대로 66길 16 1층),02 -566-9942
9,일원본동,서울 강남구 수서동 747 삼성아파트 상가 104호,"(서울 강남구 광평로31길 27, 삼성아파트 상가 104호)",02 -2226-4080
10,청담역,서울 강남구 청담동 65 진흥아파트상가,(서울 강남구 학동로 87길 9 진흥아파트상가),"02 -515-9995,515-9975"
11,강일,서울 강동구 강일동 679-3 리슈빌오피스텔,(서울 강동구 아리수로 419 리슈빌오피스텔),"02 -426-6692,6696"
12,고덕1호,서울 강동구 고덕동 650-1,(서울 강동구 고덕로61길 116),02 -481-9503~4
13,길1호,서울 강동구 길동 347-31,(서울 강동구 천중로 201),02 -473-0092
14,둔촌1호,서울 강동구 둔촌동 454-5,(서울 강동구 진황도로 168),"02 -475-9295,482-9291"
15,명일1호,서울 강동구 명일동 328-2,(서울 강동구 구천면로 438),"02 -3426-9199,3380"
16,성내,서울 강동구 성내2동 509-7 1층,"(서울 강동구 풍성로 143, 1층)",02 -485-9293
17,암사1호,서울 강동구 천호동 287-22,(서울 강동구 올림픽로92길 11),"02 -426-8533,3426-8400"
18,암사2호,서울 강동구 암사동 446-18,(서울 강동구 고덕로 85),02 -427-9982
19,천호1호,서울 강동구 천호동 550번지,(서울 강동구 구천면로 216),02 -470-9908
20,덕성여대,서울 강북구 삼양로 523(우이동 72-148),(서울 강북구 삼양로 523(우이동 72-148)),02 -900-3123
21,미아1호,서울 강북구 미아5동 1264-233,(서울 강북구 삼양로 128),02 -987-9280
22,미아역,서울 강북구 미아동 131-8,(서울 강북구 도봉로 142),02 -989-6288
23,수유1호,서울 강북구 수유동 385-2,(서울 강북구 삼각로 119),02 -994-8911~2
24,수유역점,서울 강북구 번동 461-127,(서울 강북구 한천로 1016),02 -903-3693
25,가양,서울 강서구 등촌동 75-1,(서울 강서구 양천로 482 삼부르네상스 109호),02 -3665-3433
26,강서구청,서울 강서구 화곡6동 987-7,(서울 강서구 화곡로 289),"02 -2699-3999,2699-2828"
27,까치산역,서울 강서구 화곡동 343-62 라인씨티 1층,"(서울 강서구 곰달래로 125, 라인씨티 1층)",02 -2602-1991
28,등촌,서울 강서구 등촌동 649-14,(서울 강서구 공항대로 509),02 -2647-2328
29,발산역,서울 강서구 내발동 655-6번지 1층 13호,"(서울 강서구 강서로 341, 1층 13호)",02 -2663-6077
30,방화2호,서울 강서구 방화2동 580-27,(서울 강서구 방화동로 113-1),02 -2666-9559
31,염창,서울 강서구 염창동 250-16,(서울 강서구 양천로 697),02 -3662-9238
32,화곡2호,서울 강서구 화곡동 400-45,(서울 강서구 가로공원로 227),02 -2692-9279
33,봉천2호,서울 관악구 봉천동 1674-20,(서울 관악구 남부순환로 1881),02 -882-1107
34,봉천3호,서울 관악구 봉천동 1632-9,(서울 관악구 봉천로 604),"02 -888-2366,887-3998"
35,봉천4호,서울 관악구 봉천동 931-12,(서울 관악구 봉천로 374),"02 -884-9991,882-8991"
36,봉천5호,서울 관악구 봉천3동 7-291,(서울 관악구 관악로 274-1),"02 -889-2299,6699"
37,신림1호,서울 관악구 신림4동 504-22,(서울 관악구 남부순환로161가길 42),02 -830-6668
38,신림2호,서울 관악구 신림동 762-7,(서울 관악구 문성로 82),"02 -857-9992,857-9799"
39,신림3호,서울 관악구 신림9동 246-49,(서울 관악구 대학길 47),02 -877-3688
40,건대,서울 광진구 화양동 9-18,(서울 광진구 아차로 31길 13),02 -462-1991
41,구의1호,서울 광진구 구의3동 659번지 세림리오빌 비1-4호,"(서울 광진구 아차로 451, 세림리오빌 비1-4호)",02 -453-9292
42,구의2호,서울 광진구 구의동 229-43,(서울 광진구 광나루로 544),02 -453-9995
43,자양1호,서울 광진구 자양3동 584-28,(서울 광진구 자양번영로 15),02 -452-8593~4
44,중곡1호,서울 광진구 중곡동 41-37,(서울 광진구 능동로 356),02 -446-9908
45,중곡2호,서울 광진구 중곡동 109-28,(서울 광진구 영화사로 62),02 -453-9288
46,개봉1호,서울 구로구 개봉동 403-159,(서울 구로구 개봉로 30-1),02 -2066-9244~5
47,고척1호,서울 구로구 개봉1동 126-4,(서울 구로구 고척로 129),02 -2060-4940
48,구로2호,서울 구로구 구로동 74-30,(서울 구로구 구로중앙로 18길 68),02 -854-1004
49,구로디지털,서울 구로구 구로동 826-1,(서울 구로구 디지털로 26길 110),02 -856-5542
50,동양미래대학,서울 구로구 고척동 343,"(서울 구로구 중앙로 8길 11, 106호)",02 -2060-1991
51,신도림1호,서울 구로구 신도림동 410-1 신도림6차대림@상가 902동111호,(서울 구로구 신도림동 410-1 신도림6차대림@상가 902동111호),02 -2675-9288
52,오류1호,서울 구로구 오류1동 10-3,(서울 구로구 경인로 189-1),02 -2060-9277
53,천왕역,서울 구로구 오류동 203-1 1층,(서울 구로구 서해안로 2264),02 -2616-1991
54,가산디지털,서울 금천구 가동 371-6 가비지니스센터 2층,(서울 금천구 가디지털1로 165),02 -865-0865
55,독산1호,"서울 금천구 독동 888-20 102호,103호","(서울 금천구 문성로 7, 102호,103호)",02 -868-8788
56,시흥1호,서울 금천구 시흥2동 264-17,(서울 금천구 금하로 753-1),02 -806-9990 807-9990
57,시흥2호,서울 금천구 시흥1동 905-5,(서울 금천구 은행나무로 12),"02 -806-9911,806-9922"
58,공릉1호,서울 노원구 공릉동 338-6,(서울 노원구 공릉로 35길 2),02 -974-3999
59,공릉2호,서울 노원구 공릉동 461-1,(서울 노원구 공릉로 235),02 -975-9991
60,상계4단지,서울 노원구 상계7동 749-5 상계주공@4단지상가101호,"(서울 노원구 동일로 1356  101호 (상계동, 상계주공4단지아파트))","02 -937-4785,952-9992"
61,상계보람,서울 노원구 상계5동 456-130,(서울 노원구 한글비석로52길 14),02 -952-7123
62,석계역,서울 노원구 월계1동 73-13,(서울 노원구 석계로 31),"02 -909-9229,5297"
63,수락산역,서울 노원구 상계동 1118,(서울 노원구 동일로 1651),02 -936-1212
64,중계1호,서울 노원구 중계1동 360-9,(서울 노원구 한글비석로 245),02 -933-9992
65,중계2호,서울 노원구 중계동 137-39 정진빌라 1층,(서울 노원구 덕릉로 721 정진빌라 1층),"02 -933-9829,930-9829"
66,중계역,서울 노원구 중계2동 503,(서울 노원구 동일로 1279  (중계동)),"02 -978-9255,978-9252"
67,하계1호,서울 노원구 하계1동 251 청구상가 201동 101호,(서울 노원구 한글비석로 89  101호 (하계동)),02 -976-4882
68,도봉동,서울 도봉구 도봉2동 623-163,(서울 도봉구 마들로 689),02 -956-8892
69,쌍문1호,서울 도봉구 방학1동 263-75,"(서울 도봉구 도당로 36, 재인상가 106호)","02 -955-7999,3492-6999"
70,쌍문역,서울 도봉구 쌍문3동 88-127,(서울 도봉구 도봉로 505),"02 -905-9292,9294"
71,창3동,서울 도봉구 창동 568-2,(서울 도봉구 덕릉로 264),02 -999-5222
72,창동,서울 도봉구 창5동 296-37,(서울 도봉구 해등로 120),"02 -905-8292,8290"
73,답십리1호,서울 동대문구 답십리동 257-3,(서울 동대문구 전농로 65-1),02 -2214-7782
74,서울시립대,서울 동대문구 전농1동 141-141,(서울 동대문구 전농로 189),02 -2243-1560~1
75,신이문,서울 동대문구 이문3동 237-114,(서울 동대문구 신이문로 29-1),"02 -963-9998,0209"
76,안암,서울 동대문구 제기동 142-8,(서울 동대문구 안암로 122),02 -923-3363
77,장안1호,서울 동대문구 전농3동 1-171,(서울 동대문구 한천로 229),02 -2216-0092
78,장안2호,서울 동대문구 장안동 338-6 1층,"(서울 동대문구 답십리로72길 60, 1층)",02 -2249-9599
79,청량리역,서울 동대문구 청량리동 50-3,(서울 동대문구 왕로 253),02 -957-0001~2
80,대방1호,서울 동작구 대방동 20-25 한스빌 105호,"(서울특별시 동작구 등용로 101, 한스빌 105호)","02 -816-8999,9959"
81,사당1호,서울 동작구 사당3동 155-2 1F,"(서울 동작구 사당로23길 2, 1층)",02 -3477-9945~6
82,사당3호,서울 동작구 사당동 220-119,(서울 동작구 사당로 185-1),"02 -3471-9292,9282"
83,상도2호,서울 동작구 상도2동 29-10,(서울 동작구 상도로34길 8-2),"02 -817-9252,812-8511"
84,상도터널,서울 동작구 상도1동 587,(서울 동작구 흑석로 5  (상도1동)),02 -815-8833
85,신대방,서울 동작구 신대방동 607-28,(서울 동작구 시흥대로 646),02 -846-9992
86,신대방삼거리,서울 동작구 대방동 407-46,(서울 동작구 여의대방로24길 129),02 -823-1991
87,흑석1호,서울 동작구 흑석동 180-6,(서울 동작구 흑석로 116),02 -814-3377
88,도화,"서울 마포구 도화동 179-8 1,2층","(서울특별시 마포구 도화길 31, 1,2층)",02 -715-9987
89,망원2동,서울 마포구 망원2동 474-15,(서울 마포구 월드컵로 151),02 -3143-5575
90,상암,서울 마포구 상암동 34-45,(서울 마포구 월드컵북로 48길 14),02 -309-2500
91,성산2동,서울 마포구 성동 592,(서울 마포구 월드컵로 190),02 -373-9909
92,신공덕,서울 마포구 신공덕동 159(신공덕 래미안상가 1동109호),"(서울 마포구 만리재로 74, 1동 109호)",02 -703-9919
93,신수,서울 마포구 신수동 91 세양아파트상가 101호,(서울 마포구 신수동 91 세양아파트상가 101호),"02 -704-6364,7896"
94,아현,서울 마포구 아현동 774 마포래미안 푸르지오 101동 상가 114호,(서울 마포구 마포대로 195 (마포래미안 푸르지오 101동 상가 114호)),02 -363-9993
95,연남,서울 마포구 연남동 369-20,(서울 마포구 연남로 45),02 -323-1997
96,홍대,서울 마포구 서교동 371-3,(서울 마포구 양화로16길 6),"02 -338-1300,338-1307"
97,독립문,서울 서대문구 냉천동 228,(서울 서대문구 통일로 153-1  (냉천동)),02 -392-6668
98,명지대,서울 서대문구 남가좌동 344-7,(서울 서대문구 거북골로 57-1),02 -305-9996
99,북가좌1호,서울 서대문구 응암로 11,(서울 서대문구 북가좌1동 385-41),"02 -304-3003,3053"
100,북아현1호,서울 서대문구 북아현동 1006,(서울 서대문구 북아현로 40),02 -393-5393
101,신촌,서울 서대문구 창천동 41-14,(서울 서대문구 명물길 21),02 -312-1991
102,연희1호,서울 서대문구 연희3동 344-26,(서울 서대문구 성로 381),"02 -334-7999,334-7931"
103,홍은1호,서울 서대문구 홍제동 279-52,(서울 서대문구 세검정로 89),02 -396-0111
104,홍은사거리,서울 서대문구 홍제동 326-20,(서울 서대문구 통일로 473),02 -3216-9989
105,반포1호,서울 서초구 반포동 1053 H동 26호,"(서울 서초구 신반포로 22, H동 26호)","02 -533-9279,9179"
106,방배2호,서울 서초구 방배3동 918-4번지,(서울 서초구 방배중앙로 14),02 -522-9995
107,서초1호,서울 서초구 서초동 1357-56,(서울 서초구 강남대로 43길 22-1 1층),"02 -581-9949,581-9945"
108,서초2호,서울 서초구 서초동 1669-15,(서울 서초구 서초대로56길 22),02 -588-9905
109,서초3호,서울 서초구 서초동 1579-5,(서우ㄹ 서초구 사임당로 31),02 -582-9233
110,양재1호,서울 서초구 양재동 327-2,(서울 서초구 동로 6),02 -579-9245
111,잠원1호,서울 서초구 잠원동 15-4,(서울 서초구 나루터로 69),02 -532-9992
112,금호1호,서울 성동구 금호동1가 1801-3,(서울 성동구 금호로 62),02 -2296-5992
113,성수1호,서울 성동구 성수동2가 235-1,(서울 성동구 동일로 41),02 -464-9992
114,성수역,서울 성동구 성수동2가 289-251,(서울 성동구 아차로 7길 10-1),02 -497-1991
115,왕십리1호,서울 성동구 하왕십리2동 988-2 1층,"(서울 성동구 무학봉15길 8, 1층)",02 -2293-9985~6
116,왕십리도선,서울 성동구 홍익동 131-1,(서울 성동구 고자로281 1층),02 -2292-1991
117,응봉,서울 성동구 응봉동 100 상가내 1층,"(서울 성동구 독서당로62길 43  상가내 1층 (응봉동, 대림아파트))",02 -2299-9965
118,동덕여대,서울 성북구 하월곡동 17-1,(서울 성북구 화랑로 103),"02 -913-8292,909-8292"
119,동소문,서울 성북구 동소문동 6가 227 1층,"(서울 성북구 아리랑로 21-1, 1층)",02 -953-9922
120,보문역,서울 성북구 보문동2가 40,(서울 성북구 보문로 129-8  (보문동2가)),02 -921-3292
121,석관장위,서울 성북구 장위2동 64-129,(서울 성북구 돌곶이로 93),02 -918-9925
122,정릉1호,서울 성북구 정릉4동 285-4,(서울 성북구 보국문로 68),"02 -909-3311,9282"
123,정릉2호,서울 성북구 정릉동 175-24,(서울 성북구 정릉로31길 32),02 -912-1333
124,가락2호,서울 송파구 가락동 75-7,(서울 송파구 양재대로 62길 35 다우빌딩 1층),"02 -448-9005,9045"
125,거여가락1호,서울 송파구 가락동 180-9,(서울 송파구 문정로 143),02 -406-9282
126,마천1호,서울 송파구 거여동 32-6,(서울 송파구 오금로 544 1층),02 -404-9907~8
127,문정법조,서울 송파구 문정동 620 송파푸르지오시티 B09호,(서울 송파구 새말로 62(문정동)),02 -3012-1992
128,방이2호,서울 송파구 방이동 59-1,(서울 송파구 오금로 11길 22),02 -420-0495
129,방이역,서울 송파구 오금동 41-23 성암빌딩 1층,(서울 송파구 마천로 76 성암빌딩 1층),"02 -418-9599,9569"
130,석촌,서울 송파구 석촌동 163-1,(서울 송파구 백제고분로 39길 29),02 -412-0799
131,송파1호,서울 송파구 송파동 103-31,(서울 송파구 가락로 156),02 -418-8892
132,위례송파,"서울 송파구 장지동 894 위례아이파크 상가1동 103호, 104호","(서울 송파구 위례광장로 136 위례아이파크 상가1동 103호, 104호)",02 -2043-1991
133,잠실1호,서울 송파구 잠실본동 313-8,(서울 송파구 백제고분로 142),"02 -416-9939,423 - 9989"
134,잠실2호,서울 송파구 신천동 11-4,(서울 송파구 올림픽로35가길 9),02 -417-9225~6
135,장지,서울 송파구 문정동 102-1,(서울 송파구 새말로 167),"02 -403-9225,9222"
136,풍납1호,서울 송파구 풍납2동 405번지,(서울 송파구 토성로 55),02 -478-5844~5
137,목동1호,서울 양천구 목동 797-3,(서울 양천구 목동중앙서로 24),02 -2645-9925
138,목동2호,서울 양천구 목동 909-8 이화프라자 1층 101호,"(서울 양천구 목동동로 423, 이화프라자 1층 101호)","02 -2643-9339,2643-9329"
139,목동오거리,서울 양천구 목동 940 현대아이파크상가 102,"(서울 양천구 목동로 230, 목동2차아이파크 상가 102호)",02 -2647-0092
140,신월2호,서울 양천구 신월7동 972-6,(서울 양천구 지양로 52),"02 -2697-7272,2692-0030"
141,신정1호,서울 양천구 신정1동 1027-2,(서울 양천구 신월로 326),02 -2649-9282
142,신트리,서울 양천구 신정동 1267 목동뉴프라자,"(서울 양천구 신정로 312, 목동뉴프라자)",02 -2605-7892
143,오목교,서울 양천구 신정동 1296 아이파크 상가 1층,"(서울 양천구 목동동로 180, 아이파크아파트 상가 1층)",02 -2654-0833
144,화곡1호,서울 양천구 신월동 23-17,(서울 양천구 화곡로 103),02 -2606-9961~2
145,당산1호,서울 영등포구 영등포동8가 76-1 삼환@상가 112호,"(서울 영등포구 영중로 145, 삼환아파트 상가 112호)","02 -2672-9995,2672-9994"
146,대림2호,서울 영등포구 대림3동 783-6,(서울 영등포구 대림로 235),"02 -847-9939,847-9989"
147,문래,서울 영등포구 문래동3가 77-58,(서울 영등포구 선유로 50),02 -2672-7676
148,신길1호,서울 영등포구 신길3동 355-1,(서울 영등포구 도림로 320),02 -833-6016
149,신길2호,서울 영등포구 신길7동 674,(서울 영등포구 여의대방로 177),02 -849-0033
150,여의도,서울 영등포구 여의도동 44-31,(서울 영등포구 여의대방로 67길 11),"02 -769-1555,1888"
151,영등포1호,서울 영등포구 도림동 76-24,(서울 영등포구 도신로 145),"02 -841-7282,849-7282"
152,동부이촌,서울 용구 이촌1동 301-153 오성상가 103,(서울 용구 이촌로75길 22  오성상가 103 (이촌동)),02 -795-4747
153,보광,서울 용구 보광동 217-13,(서울 용구 장문로 81),02 -3785-1991
154,용문,서울 용구 용문동 28-26,(서울 용구 새창로 108),02 -702-2858
155,후암,서울 용구 후암동 244-59,(서울 용구 후암로 28-1),02 -757-3535
156,구산역,서울 은평구 갈현2동 464-14,(서울 은평구 연서로 157),"02 -352-9949,352-9954"
157,대조,서울 은평구 대조동 231 삼성타운 A 101호,"(서울 은평구 서오릉로 94, 삼성아파트 101호)",02 -355-6173~4
158,불광1동,서울 은평구 불광동 554-1 라비앙프라자1층 101호,"(서울 은평구 불광로 60 (불광동,라비앙프라자1층 101호))",02 -354-8592
159,신사1동,서울 은평구 신사동 29-13,(서울 은평구 은평로 22),02 -375-8295
160,역촌1호,서울 은평구 역촌동 55-1,(서울 은평구 역말로 8),02 -356-4326~7
161,연신내,서울 은평구 불광동 484-72,(서울 은평구 통일로 866-1),02 -382-1990
162,은평뉴타운,서울 은평구 진관동 은평도시개발사업지구 9단지 914동 상가 103호,(서울 은평구 진관동 은평도시개발사업지구 9단지 914동 상가 103호),"02 -359-9288, 382-8889"
163,응암1동,서울 은평구 응암동 236-33,(서울 은평구 백련로 85(응암동)),02 -389-9327
164,증산,서울 은평구 증동 209-18,(서울 은평구 증서길 65),"02 -376-9999,9992"
165,대학로,서울 종로구 명륜동4가 113-1,(서울특별시 종로구 대학로11길 23),02 -3672-9292
166,숭인,서울 종로구 숭인2동 183-13,(서울 종로구 종로 385),02 -765-5800
167,동대문1호,서울 중구 창신동 464-6,(서울 종로구 종로 294),02 -2231-9337
168,신당1호,서울 중구 신당동 846,(서울 중구 다로 42나길 46),02 -2237-9952~3
169,망우본동,서울 중랑구 망우동 149-7,(서울 중랑구 망우로 478-1),02 -433-1993
170,면목1호,서울 중랑구 면목본동 72-43,(서울 중랑구 겸재로 226-2),02 -494-9962~3
171,면목2호,서울 중랑구 면목2동 191-126,(서울 중랑구 중랑천로 50),"02 -494-6282,496-6282"
172,면목3호,서울 중랑구 면목동 1096-16,(서울 중랑구 용마로 297),02 -2207-6543
173,묵동,서울 중랑구 묵동 238-90,(서울 중랑구 동일로 929),02 -948-1992
174,상봉1호,서울 중랑구 상봉1동 268-34,(서울 중랑구 상봉중앙로 34),"02 -491-9738, 9"
175,신내1호,서울 중랑구 신내1동 571-26 1층 상가,"(서울 중랑구 신내로10길 4, 1층 상가)","02 -2209-9980,7870"
176,국제신도시,부산 강서구 명지동 3412-6,(부산 강서구 명지국제8로 246),051-291-9993
177,명지신도시,부산 강서구 명지동 3231 영어신도시퀀텀1차링컨타운제상가동 제1층 208호,"(부산 강서구 명지오션시티10로 16, 영어신도시퀀텀1차링컨타운제상가동제 1층 208호 (명지동))",051-271-7725
178,신호,부산 강서구 신호동 317-15,(부산 강서구 신호산단1로 76),051-941-9207
179,구서1호,부산 금정구 구서2동 1024-1,(부산 금정구 금강로565번길 25),051-516-8600
180,남산1호,부산 금정구 남산동 99-6,(부산 금정구 금강로 678-1),"051-581-9968,9264"
181,부곡1호,부산 금정구 부곡동 23-15,(부산 금정구 무학송로 127),051-517-3009
182,부곡2호,부산 금정구 부곡1동 324-20,(부산 금정구 부곡로 92),051-516-0111
183,부산대,부산 금정구 금강로 장전동 418-13,(부산 금정구 금강로 270),051-582-8588
184,서동1호,부산 금정구 서동 210-6,(부산 금정구 서동로 182),051-526-8292
185,장전1호,부산 금정구 장전동 134-19,(부산 금정구 금강로 335번길 48),051-514-8200
186,기장1호,부산 기장군 기장읍 동부리 150-18,(부산 기장군 기장읍 차성로344번길 12),"051-722-9945,9954"
187,정관1호,부산 기장군 정관면 매학리,(부산 기장군 정관면 구연3로 5 신세계프라자 102호),051-728-9233
188,정관2호,부산 기장군 모전리 747-7,(부산 기장군 정관읍 모전3길 2),051-728-5399
189,감만,부산 남구 감만1동 158-6,(부산 남구 우암로 53),051-631-0900
190,대연1호,부산 남구 대연동 1013-8,(부산 남구 유엔로 126-1),051-639-9292
191,대연2호,부산 남구 대연동 52-7,(부산 남구 용소로 13번길 26),051-621-4800
192,메트로시티1호,부산 남구 용호동 176-30,(부산 남구 분포로 113),051-625-8900
193,문현2호,부산 남구 문현1동 127-56,(부산 남구 고동골로 68),051-646-5592
194,용호1호,부산 남구 용호3동 495-46 1층,(부산 남구 용호로 185),051-626-3999
195,범일1호,부산 동구 범일2동 833-2,(부산 동구 조방로49번길 10),051-642-8558
196,수정1호,부산 동구 수정동 295-3,(부산 동구 고관로 103),051-469-8880
197,초량,부산 동구 초량2동 489-4,(부산 동구 중앙대로209번길 6),051-441-9994
198,명륜,부산 동래구 명륜1동 673-9,(부산 동래구 명륜로 177),"051-555-9224,554-6646"
199,명장1호,부산 동래구 명장동 26-24번지 국제아파트 상가 106호,"(부산 동래구 충렬사로 81, 국제파크 상가 106호)","051-525-9233,9345"
200,복천,부산 동래구 복천동 476-1,(부산 동래구 동래로 128),"051-555-8592,556-8592"
201,사직1호,부산 동래구 사직동 137-5번지,(부산 동래구 미남로 70),"051-505-9289,502-8200"
202,사직2호,부산 동래구 사직2동 45-25,(부산 동래구 사직북로19번길 20),051-501-9995
203,안락2호,부산 동래구 안락동 670-13,(부산 동래구 안남로 77),051-526-7171
204,온천1호,부산 동래구 온천동 210-5번지,(부산 동래구 금강공원로 30-1),"051-555-2016,2017"
205,온천2호,부산 동래구 온천3동 1448-1 명보아파트 상가 가동 101호,"(부산 동래구 충렬대로86번길 62, 가동 101호)","051-506-4949,9595"
206,우방신세계,부산 동래구 안락동 471-4,(부산 동래구 명장로 139-1),051-521-8477~8
207,가야,부산 부산진구 가야동 478,(부산 부산진구 엄광로 143),051-894-9909
208,개금1호,부산 부산진구 개금동 2-1,(부산 부산진구 백양대로 208번길 90),"051-894-6071,6072"
209,당감,부산 부산진구 당감동 367-2,(부산 부산진구 동평로 46),"051-891-9979,9980"
210,범천,부산 부산진구 범천동 1278-11,(부산 부산진구 신암로 55-1),051-637-9982
211,서면,부산 부산진구 부전동 266-24,(부산 부산진구 중앙대로 745-1),051-808-9981
212,신개금,부산 부산진구 개금1동 201-6,(부산 부산진구 가야대로 475),051-894-8292
213,양정,부산 부산진구 양정동 310-6,(부산 부산진구 연수로 13-1),051-853-5458
214,연지,부산 부산진구 동평로 299,(부산 부산진구 연지동 40-12),051-807-7701~2
215,초읍1호,부산 부산진구 초읍동 288-6,(부산 부산진구 새싹로 274-1),"051-807-3492,3498"
216,구포1호,부산 북구 구포3동 1228-1,"(부산 북구 시랑로101번길 38, A동 100호)","051-363-9992,5793"
217,덕천2호,부산 북구 덕천3동 781-2,(부산 북구 덕천로 135),"051-331-3179,343-3171"
218,만덕2호,부산 북구 만덕3동 915-6,(부산 북구 만덕3로 44-1),051-337-4300
219,화명1호,부산 북구 화명동 1417-15호 좌측,"(부산 북구 산성로12번길 72, 좌측)",051-338-9933
220,화명3호,부산 북구 화명동 182-5(2층),"(부산 북구 금곡대로 414, 2층)","051-362-7770, 080-965-9999"
221,화명신도시,부산 북구 화명동 2266-1,(부산 북구 금곡대로 303번길 94),051-342-9282
222,괘법,부산 사상구 괘법동 516-1,(부산 사상구 운산로 36),051-325-0090
223,덕포,부산 사상구 덕포동 420-4,(부산 사상구 사상로 304),051-303-5592
224,모라,부산 사상구 모라동 1349-,(부산 사상구 백양대로 937),051-322-9998
225,신주례,부산 사상구 주례2동 3-17,(부산 사상구 백양대로 328),"051-315-9977,324-2626"
226,엄궁,부산 사상구 엄궁동 40-94,(부산 사상구 엄궁북로 39),"051-311-7599,7598"
227,학장,부산 사상구 학장동 579-9,(부산 사상구 대동로 117),051-313-9925
228,괴정1호,부산 사하구 괴정동 487-24,(부산 사하구 괴정로 288),051-202-9951
229,다대1호,부산 사하구 다대2동 85-5,(부산 사하구 다송로 4),051-265-4446
230,다대2호,부산 사하구 다대동 1014,(부산 사하구 윤공단로75번길 43 102호),051-266-8806
231,당리괴정2호,부산 사하구 괴정동 577-42,(부산 사하구 낙동대로 310),051-207-9242
232,신평1호,부산 사하구 신평동 71-15,(부산 사하구 다대로 141-1),051-294-8853~4
233,장림,부산 사하구 장림동 590,(부산 사하구 장평로 111),051-266-1182
234,하단1호,부산 사하구 하단2동 506-15,(부산 사하구 낙동대로 512),051-202-4780~1
235,하단2호,부산 사하구 하단1동 605-29,(부산 사하구 동매로 35),051-292-8592
236,국제신도시,부산 강서구 명지동 3412-6,(부산 강서구 명지국제8로 246),051-291-9993
237,남부민,부산 서구 남부민동 456-13,(부산 서구 남부민동 456-13),"051-247-9282,248-9282"
238,대신,부산 서구 대영로 30,(부산 서구 서대신동1가 163-1),051-231-9992~3
239,명지신도시,부산 강서구 명지동 3231 영어신도시퀀텀1차링컨타운제상가동 제1층 208호,"(부산 강서구 명지오션시티10로 16, 영어신도시퀀텀1차링컨타운제상가동제 1층 208호 (명지동))",051-271-7725
240,송도감천,부산 서구 암남동 64-2 104호,"(부산 서구 감천로 271, 104호)",051-231-9292
241,신호,부산 강서구 신호동 317-15,(부산 강서구 신호산단1로 76),051-941-9207
242,아미부민,부산 서구 부민동1가 11-3,(부산 서구 보수대로 99),051-242-3651
243,광안2호,부산 수영구 광안동 168-3,(부산 수영구 수영로 538),"051-754-2092,756-2092"
244,망미1호,부산 수영구 망미동 431-11,(부산 수영구 과정로 44-11),051-759-9925
245,민락,부산 수영구 민락동 165-15,(부산 수영구 광남로 196-1),"051-757-9294,759-9259"
246,수영,부산 수영구 수영동 503-23,(부산 수영구 수영로 735),051-761-4992
247,거제법조,부산 연제구 거제동 986-5,(부산 연제구 아시아드대로 62),051-505-5511
248,시청,부산 연제구 거제3동 34-19,(부산 연제구 거제천로 147),051-851-9945
249,연산2호,부산 연제구 연산4동 578-1 삼익아파트 상가 101호,(부산 연제구 중앙대로 1164 삼익아파트 상가 101호),051-853-9980~1
250,연산3호,부산 연제구 연산동 1872,(부산 연제구 연수로 178),051-851-7211~2
251,대교남항,부산 영도구 남항동 2가 40,(부산 영도구 남항로 6-1),051-417-9999
252,동삼,부산 영도구 동삼1동 331-9,(부산 영도구 동삼로 39-4),051-405-9995
253,봉래영선,"부산 영도구 영선동1가 69-2, 69-3",(부산 영도구 한결길 12),051-417-9288
254,청학,부산 영도구  청학동 13-14,(부산 영도구 태종로 352),051-417-9996
255,영주대청,부산 중구 대청동4가 82-13,(부산 중구 중구로 70-1),051-441-4942
256,반송,부산 해운대구 반송2동 216-150,(부산 해운대구 윗반송로 51),051-545-9289
257,반여1호,부산 해운대구 반여동 1628-5,(부산 해운대구 반여로 108),"051-524-1991,1221"
258,송정,부산 해운대구 송정동 227-7,(부산 해운대구 송정중앙로 34),051-702-5006
259,우동1호,부산 해운대구 우동 1090-13,(부산 해운대구 해운대로 381-3),051-744-2474~5
260,재송1호,부산 해운대구 재송2동 1149-13,(부산 해운대구 재반로 166),051-782-9989
261,재송2호,부산 해운대구 재송동 1083-1,(부산 해운대구 재송1로31번길 55),051-784-9992
262,좌동1호,부산 해운대구 좌동 970,(부산 해운대구 세실로 104),051-703-9917
263,좌동3호,부산 해운대구 좌동 1450  주공3단지 상가 205,(부산 해운대구 청사포로 12),"051-704-9399,9599"
264,해운대역,부산 해운대구 우동 639-4,(부산 해운대구 해운대로 604),051-746-9288
265,계명,대구시 남구 양지로 107,(대구 남구 양지로 107(대명동)),053-626-9992
266,대명1호,대구 남구 대명동 1098-4,(대구 남구 대명로 60-1),053-629-9994
267,봉덕,대구 남구 봉덕동 687-32,(대구 남구 중앙대로 22길 119-2),053-471-1222
268,앞산,대구 남구 대명9동 332-16,(대구 남구 대명로 230),053-657-9999
269,이천대봉,대구 남구 이천동 184-9,(대구 남구 대봉로38길 18),"053-476-5800,1"
270,감삼성당,대구 달서구 감삼동 317-3,(대구 달서구 장기로 186),"053-552-6999,622-9995"
271,대곡,대구 달서구 도원동 1442-2 1층 107호,"(대구 달서구 도원로 42, 1층 107호)",053-635-3599
272,상인,대구 달서구 상인동 1555-1,(대구 달서구 상화북로 180),053-637-6999
273,성서,대구 달서구 신당동 1763-2,(대구 달서구 성서서로 357),053-583-6969
274,송현,대구 달서구 송현1동 207-2,(대구 달서구 월배로 430),053-656-9945
275,신월성,대구 달서구 월성동 1264번지 트럼프스타 BD 106호,"(대구 달서구 조암남로 42, 트럼프스타빌딩 106호)","053-634-9996,9968"
276,용산,대구 달서구 용산1동 954-6,(대구 달서구 용산로 194),"053-524-4999,8"
277,용산새방,대구 달서구 용산동 499-2,(대구 달서구 선원로 264),053-592-6999
278,장기,대구 달서구 장기동 566-4,(대구 달서구 용산로 52),"053-523-0111, 0222"
279,진천,대구 달서구 송현동 1978-11,(대구 달서구 월배로 80길 110호),053-635-9992
280,논공,대구 달성군 논공읍 북리 803-128,(대구 달성군 논공읍 논공로5길 150),053-615-9945
281,다사,대구 달성군 다사읍 죽곡리 809-1,(대구 달성군 다사읍 대실역남로 10),053-592-9991
282,명곡,대구 달성군 화원읍 명곡리 320-1,(대구 달성군 화원읍 명천로 240),053-644-2999
283,서재세천,대구 달성군 다사읍 서재리 423-15,(대구 달성군 다사읍 서재로20길 1),053-593-9902~3
284,테크노폴리스,대구 달성군 유가면 봉리 606 하이젠스타 115호,(대구 달성군 유가면 테크노중앙대로 254 하이젠스타 115호),053-617-1991
285,화원,대구 달성군 화원읍 천내리 54-1,(대구 달성군 화원읍 비슬로 2635),053-635-9981
286,대구혁신,대구 동구 각산동 1098-5 102호,(대구 동구 이노밸리로46길 2 102호),053-955-1991
287,동구청,대구 동구 효목1동 962-3,(대구 동구 아양로 204),053-959-9950
288,동호,대구 동구 동호동 384-7,(대구 동구 동호로 64(동호동)),053-963-8558
289,방촌,대구 동구 방촌동 1118-121,(대구 동구 화랑로 415),053-983-3993
290,신암대현,대구 동구 신암동 806-3,(대구 동구 신암로 127),053-952-9992
291,신천1호,대구 동구 신천동 501-5,(대구 동구 송라로 87),053-742-9985
292,신천2호,대구 동구 신청동 377-12,(대구 동구 동부로 30길 27),"053-741-9010,745-5363"
293,율하,대구 동구 율하동 1311번지 102호,(대구 동부 율하서로 78 102호),053-964-3347
294,지묘봉무,대구 동구 지묘동 808-3,(대구 동구 파계로 95(지묘동)),053-985-1003
295,지저불로,대구 동구 지저동 833-15,(대구 동구 해동로 63),"053-981-5770,983-6556"
296,관음,대구 북구 관음동 1383-9,(대구 북구 칠곡중앙대로 487),053-326-9998
297,구암,대구 북구 태전동 1074-6,(대구 북구 태암남로 10),"053-322-5844,323-9969"
298,동서변,대구 북구 동변동 669-4,(대구 북구 동변로 91),053-958-9991
299,동천3지구,대구 북구 동천동 906-3,(대구 북구 동천로 125-9),"053-321-0900,6551"
300,복현1호,대구 북구 복현동 460-6,(대구 북구 동북로 282),"053-953-3399,952-2399"
301,복현2호,대구 북구 복현동 539 -110 복현서한타운 상가 103호,"(대구 북구 검단로 50, 서한1차아파트 상가 103호)",053-383-9970
302,산격,대구 북구 산격동 1400-20,(대구 북구 대학로 69),"053-383-1203, 1102"
303,원대,대구 북구 노원동2가 368번지,(대구 북구 팔달로 201),053-355-3306
304,침산,대구 북구 침산동 457-31번지,(대구 북구 성북로 1),"053-356-9995,9905"
305,태전,대구 북구 태전동 254-30,(대구 북구 태전로 53),"053-312-9980,9985"
306,팔달매천,대구 북구 매천동 682,(대구 북구 매전로 2-1),"053-311-9910,9920"
307,감삼성당,대구 달서구 감삼동 317-3,(대구 달서구 장기로 186),"053-552-6999,622-9995"
308,내당,대구 서구 내당동 219-7,(대구 서구 달구벌대로 1795-1),"053-522-9199, 555-9981"
309,달성비산,"대구 서구 비산 2,3동 3-50",(대구 서구 북비산로 388),053-551-9925
310,대곡,대구 달서구 도원동 1442-2 1층 107호,"(대구 달서구 도원로 42, 1층 107호)",053-635-3599
311,상인,대구 달서구 상인동 1555-1,(대구 달서구 상화북로 180),053-637-6999
312,성서,대구 달서구 신당동 1763-2,(대구 달서구 성서서로 357),053-583-6969
313,송현,대구 달서구 송현1동 207-2,(대구 달서구 월배로 430),053-656-9945
314,신월성,대구 달서구 월성동 1264번지 트럼프스타 BD 106호,"(대구 달서구 조암남로 42, 트럼프스타빌딩 106호)","053-634-9996,9968"
315,용산,대구 달서구 용산1동 954-6,(대구 달서구 용산로 194),"053-524-4999,8"
316,용산새방,대구 달서구 용산동 499-2,(대구 달서구 선원로 264),053-592-6999
317,장기,대구 달서구 장기동 566-4,(대구 달서구 용산로 52),"053-523-0111, 0222"
318,진천,대구 달서구 송현동 1978-11,(대구 달서구 월배로 80길 110호),053-635-9992
319,평리,대구 서구 평리동 1093-11,(대구 서구 국채보상로 266),"053-556-9989, 557-9989"
320,만촌1호,대구 수성구 만촌동 19,(대구 수성구 달구벌대로536길 94),053-745-7123
321,만촌2호,대구 수성구 만촌1동 1330-12,(대구 수성수 만촌로 158-1),053-755-8592~1
322,범물,대구 수성구 범물동 1374-4,"(대구 수성구 범안로 58, 1층)",053-782-6464
323,범어1호,대구 수성구 범어동 203-18,(대구 수성구 달구벌대로 496길17),053-744-5623
324,수성,대구 수성구 수성4가 1023-30,(대구 수성구 들안로 347),"053-743-3993,3997"
325,시지1호,대구 수성구 매호동 1040번지 108동 107호,"(대구 수성구 천을로 180, 108동 107호)","053-792-9981,9927"
326,시지2호,대구 수성구 시지동 498번지 시지노변아파트 상가 2동 108호,"(대구 수성구 시지로 55, 2동 108호 상가)",053-792-7729
327,중동,대구 수성구 중동 97-5,(대구 수성구 수성로 226),053-765-9901~2
328,지산,"대구 수성구 지산동 1234, 113동 4호","(대구 수성구 용학로 189, 113동 4호)",053-782-3335
329,파동,대구 수성구 파동 27-284,(대구 수성구 파동로 164-1),"053-761-5901, 766-5419"
330,황금,대구 수성구 두산동 133-1,(대구 수성구 상화로 124),053-765-6999
331,남산대신,대구 중구 남산3동 2466-14,(대구 중구 남산로 49),"053-255-9982,3"
332,중앙,대구 중구 남일동 33-9,(대구 중구 중앙대로 417-2),053-425-9919
333,강화,인천 강화군 강화읍 갑곳리 199-1,(인천 강화군 강화읍 강화대로 342),032-933-3244
334,계산1호,인천 계양구 계산동 1081-10,(인천 계양구 오조산로 57번길 15),032-555-9980
335,계산2호,인천 계양구 계산3동 61-2,"(인천 계양구 계산새로 25, 성일빌딩 1층 1호)",032-551-5592
336,임학박촌,인천 계양구 박촌동 52-3,(인천 계양구 장제로 1013),"032-553-3999,556-3999"
337,작전1호,인천 계양구 작전1동 871-22,(인천 계양구 주부토로 397),032-547-8933
338,효성1호,"인천 계양구 효성1동 21-11 현대아파트 상가동 101호, 102호, 103호","(인천 계양구 길마로 70 현대아파트 상가동 101호, 102호, 103호)",032-544-6711~2
339,효성2호,인천 계양구 효성2동 273-3,(인천 계양구 안남로 486-2),032-542-9244
340,관교,인천 남구 관교동 321-5,(인천 남구 인하로 404-2),032-441-9994~5
341,용현2동,인천 남구 용현동 558-32,(인천 남구 낙섬중로 96 1층),032-889-1400
342,용현5동,인천 남구 용현동 630-45,(인천 남구 토금남로 12(용현동)),032-888-9191
343,주안1호,인천 남구 주안동 1523-2,(인천 남구 인하로 346),032-428-9592~3
344,주안3호,인천 남구 주안동 929-11,(인천 남구 경원대로 898),032-427-8892
345,학익1호,인천 남구 학익동 665-3,(인천 남구 매소홀로 482),032-863-6363~4
346,간석1호,인천 남동구 구월동 70-80,(인천 남동구 용천로97번길 3),"032-432-6765,6764"
347,구월,인천 남동구 구월동 1133-13,(인천 남동구 미래로 39 더클래스),032-433-3232
348,논현1호,인천 남동구 논현동 620-8,(인천 남동구 논고개로 123번길 42),032-434-0096~7
349,논현에코메트로,인천 남동구 논현동 752-1,"(인천 남동구 소래역 남로22 (103호, 104호))",032-437-1991
350,만수1호,인천 남동구 만수동 1045 103호,(인천 남동구 담방로21번길 23),032-461-7600
351,만수2호,인천 남동구 만수2동 5-440,(인천 남동구 만수로 85),032-469-1848
352,만수3호,인천 남동구 간석3동 921-14,(인천 남동구 백범로 258),032-461-9999
353,서창,인천 남동구 서창동 706,(인천 남동구 서창 남순환로 216번길 35),032-467-1991
354,간석1호,인천 남동구 구월동 70-80,(인천 남동구 용천로97번길 3),"032-432-6765,6764"
355,구월,인천 남동구 구월동 1133-13,(인천 남동구 미래로 39 더클래스),032-433-3232
356,논현1호,인천 남동구 논현동 620-8,(인천 남동구 논고개로 123번길 42),032-434-0096~7
357,논현에코메트로,인천 남동구 논현동 752-1,"(인천 남동구 소래역 남로22 (103호, 104호))",032-437-1991
358,만수1호,인천 남동구 만수동 1045 103호,(인천 남동구 담방로21번길 23),032-461-7600
359,만수2호,인천 남동구 만수2동 5-440,(인천 남동구 만수로 85),032-469-1848
360,만수3호,인천 남동구 간석3동 921-14,(인천 남동구 백범로 258),032-461-9999
361,서창,인천 남동구 서창동 706,(인천 남동구 서창 남순환로 216번길 35),032-467-1991
362,송현,인천 동구 송현동 66-530 센터빌딩 102호,"(인천 동구 화수로 7, 센터빌딩 102호)",032-765-8338
363,부개1동,인천 부평구 부개동 265-3,(인천 부평구 경인로 1066),032-362-9982
364,부개3동,인천 부평구 부개동 12-127,(인천 부평구 길주남로 127),"032-521-9982,513-9982"
365,부평1호,인천 부평구 부평동 451-30,(인천 부평구 부평대로 115),032-525-9982
366,부평2호,인천 부평구 부평동 889-8,(인천 부평구 길주남로 31),032-518-9800
367,산곡1호,인천 부평구 산곡동 369-270,(인천 부평구 마장로 153),032-508-9001~2
368,산곡2호,인천 부평구 산곡동 119-54,(),032-244-2626
369,산곡3호,인천 부평구 산곡2동 251-1,(인천 부평구 마장로 250),032-508-8892
370,삼산,인천 부평구 삼산동 433-1,(인천 부평구 충선로 311번길 25-23),050-8389-8917
371,십정1호,인천 부평구 십정2동 488-41,(인천 부평구 동암남로 25),032-437-8989
372,가좌,인천 서구 가좌동 30-78,(인천 서구 원적로 100번길 18),"032-579-9989,577-9711"
373,검단1호,인천 서구 검단로 왕길동 637-1,"(인천 서구 검단로 459번길 7-3 (106,107호))",032-561-9772
374,검암,인천 서구 검암동 626-2번지 태건프라자 105호,"(인천 서구 승학로 452, 태건프라자 105호)",032-568-2313
375,당하,인천 서구 마전동 585,(인천 서구 마전동 완정로 18번지 102호),032-568-9949
376,불로원당,인천 서구 당하동 1033-3 조이빌 103,(인천 서구 원당대로 882 조이빌 103호),"032-564-9994,2113"
377,석남가정,인천 서구 가정동 505-4,(인천 서구 원창로 215),032-578-9988
378,연희1호,인천 서구 심곡동 257-15,(인천 서구 심곡로 34),032-567-0092
379,청라,인천 서구 연희동 799-8 우리프라자 1층,(인천 서구 연희동 중봉대로612번길 10-20),032-566-9288
380,동춘,인천 연수구 동춘동 934-1,(인천 연수구 앵고개로 264번길 10-11 1층),032-815-9114
381,선학연수3호,인천 연수구 선학동 406-2,(인천 연수구 학나래로 118번길 29),032-815-3993
382,송도1호,인천 연수구 송도동 21-59  302동 102호,"(인천 연수구 컨벤시아대로 70, 302동 102호)",032-858-8883
383,송도드림시티,인천 연수구 송도동 3-2,"(인천 연수구 컨벤시아대로 81 드림씨티(122,123호))",032-505-1991
384,연수중앙,인천 연수구 연수동 626,(인천 연수구 샘말로44번길 2),032-821-9945
385,옥련,인천 연수구 옥련동 194-4,(인천 연수구 독배로 35),032-833-9949
386,공항신도시,인천 중구 운서동 2797-4 대원프라자,"(인천 중구 신도시남로141번길 2, 대원프라자)",032-746-5810~1
387,영종하늘도시,"인천 중구 중산동 1884-4 108,109호",(인천 중구 하늘중앙로 195번길 24(중산동)),032-751-8933
388,소촌우산,광주 광산구 소촌동 244-6,(광주 광산구 소촌로 152번길 30),062-942-1200
389,송정1호,광주 광산구 도산동 1143,(광주 광산구 도산로 10),062-944-9992
390,수완1호,광주 광산구 장덕동 1479번지 1층,"(광주 광산구 장신로19번안길 29-2, 1층)",062-956-1991
391,수완2호,광주 광산구 수완동 1128번지  102호,"(광주 광산구 수완로 73번길 3, 102호)",062-961-9299
392,신창,광주 광산구 신창동 1236-1,(광주 광산구 신창로 104 105호),062-962-9282~3
393,운남1호,광주 광산구 월곡2동 683-1,(광주 광산구 풍영로 47),062-952-9930~1
394,첨단1호,광주 광산구 산월동 첨단과학산업단지 884-2 호반상가 2동 103호,(광주 광산구 산월동 첨단과학산업단지 884-2 호반상가 2동 103호),062-973-8892~3
395,첨단2호,광주 광산구 쌍암동 655-4번지,(광주 광산구 첨단중앙로170번길 12),062-973-1292~3
396,하남1호,광주 광산구 산정동 977-13,(광주 광산구 월곡산정로 13-1),062-951-9944
397,노대효천,광주 남구 노대동 814,(광주 남구 효덕로 192),062-651-1991
398,백운,광주 남구 서동 71-15,(광주 남구 중앙로 66),062-652-9989
399,봉선1호,광주 남구 주월1동 1253-4,(광주 남구 봉선중앙로 135-1),062-654-9994
400,봉선2호,광주 남구 봉선2동 475,(광주 남구 봉선2로 31),062-655-9945
401,주월,광주 남구 월산동 1034-17,(광주 남구 군분로 58),062-676-9555
402,진월,광주 남구 진월동 870번지 한국아델리움 2차상가 230동 102호,"(광주 남구 서문대로627번길 9, 230동 102호 상가)","062-672-9292,672-9288"
403,계림,광주 동구 장동 16-4,(광주 동구 중앙로 234),062-222-8599
404,조선대,광주 동구 지산동 500번지,(광주 동구 지산로 21 (지산동)),062-234-9933
405,학동,광주 동구 학동 735-16,(광주 동구 의재로 22),"062-236-0082,0092"
406,두암1호,광주 북구 두암2동 826-50,(광주 북구 군왕로 154),062-266-9997
407,문흥1호,광주 북구 문흥동 980-15,(광주 북구 문산로 86-1),"062-269-9990,264-9990"
408,양산1호,광주 북구 양산동 877-1 1층,"(광주 북구 양산로 48, 1층)",062-576-9296~7
409,오치,광주 북구 오치동 785-4,(광주 북구 설죽로 306),062-262-1991
410,운암1호,광주 북구 운암3동 1051-5,(광주 북구 북문대로 158),062-529-9993~4
411,운암2호,광주 북구 운암동 492-39,(광주 북구 비엔날레로 26(운암동)),062-511-9992
412,일곡1호,광주 북구 일곡동 828-4,(광주 북구 송해로 73),"062-573-7892,572-7893"
413,전남대,광주 북구 용봉동161-15번지,(광주 북구 우치로90번길 28),"062-262-9993,262-9978"
414,첨단신용,광주 북구 신용동 693,(광주 북구 첨단 연신로 91번길 38 107호),062-575-1200
415,금호,광주 서구 쌍촌동 881번지,(광주 서구 화정로 1),062-382-1991
416,동천,광주 서구 동천동 527,(광주 서구 동천로18번길 16),062-515-9966
417,마재,"광주 서구 금호동 813 대주파크빌상가 124동 114호, 115호","(광주 서구 화개1로24번길 9 대주파크빌상가 124동 114호, 115호)",062-682-8800
418,상무1호,광주 서구 치평동 1181-2번지 107호,(광주 서구 상무중앙로 57),"062-376-9901,9910"
419,쌍촌1호,광주 서구 쌍촌동 147,(광주 서구 내방로 231),062-383-9945~6
420,풍암1호,광주 서구 풍암동 1048번지 호반 APT상가 104호,(광주 서구 풍암순환로 20),"062-681-3999,3889"
421,화정1호,광주 서구 화정동 824-16,(광주 서구 월드컵4강로 70),062-384-8292
422,송촌1호,대전 대덕구 송촌동 454-4,(대전 대덕구 송촌북로 20번길 27-17),042-621-9292
423,한남대,대전 대덕구 한남로 오정동 223-260,(대전 대덕구 한남로 12번길 19-9),042-632-1991
424,가오천동,대전 동구 가오동 235-12,(대전 동구 대전로 446),042-282-9280~1
425,용운,대전 동구 용운동 306-3,(대전 동구 용운로 156),"042-272-9030,9040"
426,자양대동,대전 동구 대동 192-1,(대전 동구 동대전로 93),042-627-9996
427,가장내동,대전 서구 가장동 50-45,(대전 서구 가장로 129),042-523-4567
428,갈마1호,대전 서구 갈마2동 404-2 푸른아파트 상가 107-2,"(대전 서구 갈마로117번길 23, 푸른임대아파트 상가 107-2)",042-523-7702
429,관저느리울,대전 서구 관저동 1354,(대전 서구 관저동로 65),"042-543-8592,8599"
430,도마1호,대전 서구 도마동 114-19,(대전 서구 배재로 88),042-538-5550
431,둔산1호,대전 서구 둔산2동 1093 101호,"(대전 서구 갈마역로 22, 101호)","042-483-9979,486-9949"
432,둔산2호,대전 서구 둔산동 1851,(대전 서구 둔산로 238),042-487-1152
433,만년,대전 서구 만년동 277,(대전 서구 만년남로 3번길 1),042-484-9945
434,복수,대전 서구 복수동 622,(대전 서구 복수동로 63),042-581-9905
435,월평1호,대전 서구 월평1동 845번지,(대전 서구 월평중로 6),042-472-5670
436,탄방,대전 서구 탄방동 723,(대전 서구 문정로 89번길 37),042-484-9333
437,관저1호,대전 유성구 원내동 829 외 1필지,(대전 유성구 계백로 963),042-542-6999
438,관평,대전 유성구 관평동 1056,(대전 유성구 관평1로 67),042-933-9889
439,노은1지구,대전 유성구 노은동 553-9 스타돔 120호,(대전 유성구 노은로 71 스타돔 120호),"042-825-5430,5431"
440,노은2지구,대전 유성구 지족동 985-2,(대전 유성구 지족로 355),042-824-9985
441,도안1지구,대전 유성구 상대동 469-9,(대전 유성구 상대동로 50),042-824-1992
442,송강,대전 유성구 봉산동 198-13,(대전 유성구 봉산로 36),"042-933-9240,9250"
443,신성,대전 유성구 신성동 137-15,(대전 유성구 신성로 80-1),042-861-0670
444,유성,대전 유성구 봉명동 621-1,(대전 유성구 문화원로 90),042-824-9296~7
445,전민,대전 유성구 전민동 306-13,(대전 유성구 전민로70번길 59),"042-863-7292,9297"
446,대사부사,대전 중구 대사동 69-53,(대전 중구 충무로 116),042-254-9777
447,문화1호,대전 중구 문화동 466-16,(대전 중구 천근로 21),"042-585-7749,7757"
448,용두오류,대전 중구 용두동 26-1,(대전 중구 계룡로 841),042-221-9981~2
449,중촌,대전 중구 중촌동 98-16,(대전 중구 대종로 670),042-221-9992
450,태평1호,대전 중구 유천동 326-13,(대전 중구 태평로 22(유천동)),042-524-1992
451,공업탑,울산 남구 신정동 1218-7,(울산 남구 봉월로 6),052-266-9245
452,달동,울산 남구 달동 135-2,(울산 남구 신정로30번길 18),052-276-9911
453,무거1호,울산 남구 무거1동 278-3,(울산 남구 북부순환도로13번길 33),052-223-2122
454,삼산,울산 남구 달동 1331-20,(울산 남구 삼산로241번길 35),052-261-1992
455,삼산2호,울산 남구 삼산동 203-15,(울산 남구 남중로 92),052-256-5292
456,수암,울산 남구 신정4동 870-9,(울산 남구 수암로 94),052-265-9293
457,신정3동(구 신정3호점),울산 남구 신정3동 177-1,(울산 남구 월평로 68-1),052-272-9902
458,야음1호,울산 남구 선암동 679-3,(울산 남구 선암동 두왕로 190),052-266-9978
459,야음2호,울산 남구 야음1동 455-8,(울산 남구 수암로 259-1),052-267-9982
460,옥동,울산 남구 옥동 1406-17,(울산 남구 문수로 355),052-275-7727
461,울대,울산 남구 무거동 583-17,(울산 남구 대학로 39),052-249-1236
462,남목서부,울산 동구 서부동 181-31,(울산 동구 방어진순환도로 929),"052-232-8992, 8997"
463,방어,울산 동구 방어동 1149-1,(울산 동구 화문로 68),052-201-9905~6
464,전하,울산 동구 전하2동 634-4,(울산 동구 진성13길 90),052-201-8992
465,화정,울산 동구 화정동 438-3,(울산 동구 대송로 96),052-201-9191
466,강동산하,울산 북구 산하동 89,(울산 북구 산하중앙2로 281),052-292-1991
467,양정염포,울산 북구 양정동 497-11,(울산 북구 염포로 477-2),052-287-1112
468,호계1호,울산 북구 호계동 346-1,(),"052-295-9945,282-7751"
469,호계2호,울산 북구 신천동 107-4,(울산시 북구 신천로 53-2),052-282-5151
470,화봉,울산 북구 연암동 414-3,(울산 북구 상방로 130),052-289-8992
471,구영,울산 울주군 범서읍 구영리 819-2,(울산 울주군 범서읍 점촌5길 37),052-244-9948
472,남창,울산 울주군 온양읍 운화리 56-6,(울산 울주군 온양읍 온양로 61),052-238-3999
473,덕신,울산 울주군 온산읍 덕신리 1293-4,(울산 울주군 온산읍 온덕2길 30),052-238-8554
474,언양,울산 울주군 언양읍 동부리 147-1,(울산 울주군 언양읍 옛장터1길 34),052-254-5511
475,웅촌,울산 울주군 청량면 삼정리 755-1 가동 216호,(울산 울주군 청량면 삼정로 92-3 가동 216호),052-277-9288
476,천상,울산 울주군 범서읍 천상리 650-5,(울산 울주군 범서읍 천상중앙길 104),052-248-1991
477,다운,울산 중구 다운동 536-1,(울산 중구 다운로 40),052-249-4080
478,반구1호,울산 중구 반구동 874-3,(울산 중구 염포로 70),052-293-9909
479,반구2호,울산 중구 반구동 99-17,(울산 중구 화합로 415),052-291-3112~3
480,복산,울산 중구 복산동 399-12,(울산 중구 계변로 89-1),052-292-0092
481,성안,울산 중구 성안동 401-7,(울산 중구 성안로 194),052-248-3300
482,약사병영,울산 중구 약사동 629-17,(울산 중구 평산1길 2),052-294-9222
483,옥교,울산 중구 학산동 3-27,(울산 중구 구교로 64),052-246-9294
484,우정,울산 중구 우정동 436-41,(울산 중구 우정2길 25),"052-246-5555,9292"
485,태화,울산 중구 태화동 117-2,(울산 중구 신기길 128(태화동)),052-221-0087
486,한솔,세종 한솔동 927,(세종 노을3로 104 한솔빌딩 106호 (한솔동)),"044-867-1991, 1992"
487,도담,세종 도담동 245-1,"(세종  보듬3로 8-29(도담동,해피라움6))",044-866-1119
488,가평,경기 가평군 가평읍 대곡리 230-23,(경기 가평군 가평읍 오리나무길 25),031-581-9945
489,청평,경기 가평군 청평면 청평리 452-5,(경기 가평군 청평면 청평중앙로 17),031-585-9282
490,현리,경기 가평군 하면 현리 259-7,(경기 가평군 하면 조종희망로 26),031-584-9225
491,고양동,경기 고양시 덕양구 고양동 176-8 104호,"(경기 고양시 덕양구 동헌로 461, 104호)",031-963-1381
492,무원마을,경기 고양시 덕양구 행신동 719-9 (1층103호),"(경기 고양시 덕양구 무원로 32, 1층 103호)",031-971-9909
493,삼송,"경기 고양시 덕양구 신원로 185(신원동, 1층 상가 5~6호)","(경기 고양시 덕양구 신원로 185(신원동, 1층 상가 5~6호))",02 -381-1991
494,원당,경기 고양시 덕양구 성사동 519-2,(경기 고양시 덕양구 호국로 838),031-965-3210
495,행신1호,경기 고양시 덕양구 행신동 995-2,(경기 고양시 덕양구 중앙로 547),031-971-9599
496,화정1호,경기 고양시 덕양구 화정동 906-5 1층 102호,"(경기 고양시 덕양구 은빛로 61, 1층 102호)",031-967-8852
497,강선,경기 고양시 일산동구 정발산동 717-3,(경기 고양시 일산동구 무궁화로75번길 36),031-911-9980
498,밤가시후곡,경기 고양시 일산동구 정발산동 1093,(경기 고양시 일산서구 일산로 486),031-924-9292
499,백마강촌,경기 고양시 일산동구 마두1동 734 백마마을4단지상가 106호,(경기 고양시 일산동구 강촌로 191),031-903-6886
500,백송,경기 고양시 일산동구 백석동 1225 중앙프라자 103호,"(경기 고양시 일산동구 강송로 115, 중앙프라자 103호)",031-906-9942
501,식사,경기 고양시 일산동구 식사동 1531,(경기 고양시 일산동구 위시티2로 11번길),031-932-5557
502,중산,경기 고양시 일산동구 중산동 1667-3,(경기 고양시 일산동구 고봉로278번길 16),031-976-9989
503,호수,경기 고양시 일산동구 백석동 1414-15,(경기 고양시 일산동구 호수로 446번길 73-3),031-903-5014
504,구일산,경기 고양시 일산서구 일산동 967-6,(경기 고양시 일산서구 원일로 21),031-922-5589
505,대화,경기 고양시 일산서구 대화동 2126-2 (동남빌딩 101호),"(경기 고양시 일산서구 대산로 212, 동남빌딩 101호)",031-919-9981
506,주엽,경기 고양시 일산서구 주엽2동 138 애비뉴상가 1층 1068호,"(경기 고양시 일산서구 중앙로 1493, 애비뉴상가 1층)",031-911-9985
507,탄현,경기 고양시 일산서구 탄현동 1501-4,(경기 고양시 일산서구 탄중로233번길 4),031-919-9980
508,과천1호,경기 과천시 원문동 4 레미안 슈르 A상가(4번지)동 제1층 1023호,(경기 과천시 별양로 28  A상가(4번지)동 제1층 1023호),02 -503-9952
509,광명1호,경기 광명시 광명동 295-4,(경기 광명시 광명로 864),02 -2615-9114
510,소하1호,경기 광명시 소하동 1240-3,(경기 광명시 기아로 24),02 -897-2140
511,소하2호,"경기 광명시 소하동 1363, 신촌 휴먼시아 상가 106호","(경기 광명시 신촌로 49, 신촌 휴먼시아 상가 106호)",02 -899-1338
512,철산1호,경기 광명시 철산동 210-1,(경기 광명시 시청로 41),02 -2060-6761
513,철산2호,경기 광명시 철산동 92-1,(경기 광명시 시청로 110),02 -2060-7743
514,하안1호,"경기 광명시 하안동 35-5, 영보빌딩 102호","(경기 광명시 하안로287번길 17, 영보빌딩 102호)",02 -806-2004
515,곤지암,경기 광주시 곤지암읍 곤지암리 443-9,(경기 광주시 곤지암읍 경충대로 617),031-763-1991
516,광주1호,경기 광주시 경안동 154-1,(경기 광주시 문화로 101번길 2),031-765-8292
517,신현,경기 광주시 오포읍 신현리 371-4,(경기 광주시 오포읍 신현로 120),031-726-1091
518,태전,경기 광주시 태전동 261-14,(경기 광주시 태봉로 26),031-769-1091
519,수택,경기 구리시 교문동 760-12,(경기 구리시 이문안로 3),031-569-3999
520,인창,경기 구리시 인창동 527-17,(경기 구리시 동구릉로 77),031-568-9992
521,토평,경기 구리시 토평동 970-6 1층 상가,"(경기 구리시 벌말로 147번길 28, 1층 상가)",031-562-9995
522,당동1호,경기 군포시 당동 904-5 그린프라자 102호,"(경기 군포시 고산로 264번길 13, 그린프라자 102호)",031-399-5225
523,부곡,경기 군포시 부곡동 1132-4 1층,(경기 군포시 송부로 291번길 9),031-462-8292
524,산본1호,경기 군포시 산본동 1106-3 101호,"(경기 군포시 산본로 431번길 6, 101호)",031-399-9992
525,산본3호,경기 군포시 산본동 48 에덴다모은정아파트 1층,"(경기 군포시 곡란로 8번길 42, 에덴다모은정아파트 1층)",031-391-4484
526,산본역,경기 군포시 산본동 1142-6,(경기 군포시 번영로 495),031-397-1991
527,호계3호,경기 군포시 당정동 2-3,(경기 군포시 엘에스로 13),031-452-9936~7
528,고촌,경기 김포시 고촌면 신곡리 1052,(경기 김포시 고촌읍 고송로 17),031-983-0065
529,구래,경기 김포시 구래동 6883-1,(경기 김포시 김포한강9로 76번길 87),031-985-2991
530,사우,경기 김포시 사우동 998,"(경기 김포시 돌문로 66, 1층)",031-997-9289
531,운양,경기 김포시 운양동 1297-6 승문리앤포레 1차 1층,(경기 김포시 김포한강11로 310 승문리앤포레 1차 1층),031-981-1997
532,장기1호,경기 김포시 장기동 장기동 1360,"(경기 김포시 김포한강1로 78번길 6-6, 1층(연경프라자 103,104,114호))",031-998-9992
533,통진1호,경기 김포시 서암리 758-79,(경기 김포시 서암로 94번길 6),"031-989-4545,989-7092"
534,풍무,경기 김포시 풍무동 429-11,(경기도 김포시 풍무로 59),031-985-0779
535,덕소1호,경기 남양주시 와부읍 덕소리 141-91,(경기 남양주시 와부읍 수레로 44 1층),031-577-8080
536,도농1호,경기 남양주시 도농동 153-5,(경기 남양주시 경춘로 384),031-568-9289
537,마석,경기 남양주시 화도읍 마석우리 384-8,(경기 남양주시 화도읍 마석로 100),031-559-9266
538,별내1호,경기 남양주시 별내동 1078-3,(경기 남양주시 별내면 별내5로 5번길 47),031-527-1998
539,별내2호,경기 남양주시 별내동 846-7,(경기 남양주시 덕송2로6번길 16-48),031-572-1991
540,오남,경기 남양주시 오남읍 오남리 205-19,(경기 남양주시 오남읍 진건오남로 647),031-574-9981
541,진건,경기 남양주시 진건읍 사능리 353-4,(경기 남양주시 진건읍 사릉로 390),031-528-9994
542,진접장현리,경기 남양주시 진접읍 장현리 672-1,(경기 남양주시 진접읍 봉현로 14),031-571-2772
543,진접지구,경기 남양주시 진접읍 금곡리 1041-1,(경기 남양주시 진접읍 해밀예당2로 119),031-527-0401
544,창현,경기 남양주시 화도읍 창현리 462-3,(경기 남양주시 화도읍 창현로 19),031-559-9911
545,퇴계원,경기 남양주시 퇴계원면 퇴계원리 290-14,(경기 남양주시 퇴계원면 퇴계원로 33),031-573-9952
546,평내,경기 남양주시 평내동 203-2,(경기 남양주시 경춘로 1298 혜림빌딩),031-593-9929
547,호평,경기 남양주시 호평동 650-1,(경기 남양주시 호평로 64-1),031-511-7892
548,송내,경기 동두천시 지행동 694 예일 복합타워 114호,"(경기 동두천시 중앙로 134-12, 예일복합타워 114호)",031-863-7797
549,괴안,경기 부천시 소사구 괴안동 39-2,(경기 부천시 소사구 범안로 2),032-344-9291
550,소사범박,경기 부천시 소사구 소사본동 139-9,(경기 부천시 소사구 소사로222),032-346-3333
551,송내,경기 부천시 소사구 송내1동 366-13,(경기 부천시 소사구 경인로 67),032-655-9992
552,심곡1호,경기 부천시 소사구 심곡본동 678-17,(경기 부천시 소사구 성주로 257-1),"032-611-9239,611-9278"
553,고강1호,경기 부천시 오정구 고강1동 305-4,(경기 부천시 오정구 원종로 111),"032-675-8228,675-8220"
554,원종도당,경기 부천시 오정구 원종1동 281-15,(경기 부천시 오정구 소사로 740),032-675-9492~3
555,상동1호,경기 부천시 원미구 상2동 546-6 110호,"(경기 부천시 원미구 소향로 25, 110호)",032-224-9292
556,상동역,경기 부천시 원미구 상동 523-3 대동프라자 1층 107호,"(경기 부천시 원미구 도약로 25, 대동프라자 1층 107호)",032-328-1771
557,송내로데오,경기 부천시 원미구 상동 400-2,(경기 부천시 원미구 상일로 86),032-324-3020
558,신중동,경기 부천시 원미구 중동 1141-1,(경기 부천시 원미구 중동로 262번길 40),032-327-9959
559,역곡2동,경기 부천시 원미구 역곡동 48-5,(경기 부천시 원미구 부일로 696),032-344-9220
560,중동2호,경기 부천시 원미구 중4동 1033-3,(경기 부천시 원미구 길주로 199),032-328-1600
561,동판교,경기 성남시 분당구 삼평동 664,(경기 성남시 분당구 판교역로 192번길 12),031-8061-0771
562,무지개마을,경기 성남시 분당구 구미동 212-2,(경기 성남시 분당구 미금로 22번길 8),031-713-9971
563,미금,경기 성남시 분당구 구미동 47-1,(경기 성남시 분당구 미금일로 74번길 20),031-717-8884
564,서판교,경기 성남시 분당구 판교동 612-3,(경기 성남시 분당구 운중로 243번길 14),031-702-1990
565,서현,"경기 성남시 분당구 서현동 89-7, 삼성한신근린상가","(경기 성남시 분당구 중앙공원로 39번길 7, 1층 121호)",031-702-5757
566,수내1호,경기 성남시 분당구 수내동 32 양지마을청구아파트,(경기 성남시 분당구 내정로 165번길 38 (양지마을청구아파트)),031-712-1991
567,아름마을,"경기 성남시 분당구 야탑동 533-8, 미라보상가 1층 7호","(경기 성남시 분당구 판교로 445, 미라보상가 1층 7호)",031-701-9972
568,야탑1호,경기 성남시 분당구 야탑동 272-4,(경기 성남시 분당구 벌말로 40번길 3),031-709-9960
569,정자,경기 성남시 분당구 정자동 58-8,(경기 성남시 분당구 느티로 87번길 19),031-718-5436
570,효자,경기 성남시 분당구 서현동 298-3  효자촌프라자 119호,"(경기 성남시 분당구 돌마로 478, 효자촌프라자 119호)",031-702-0203
571,수진1호,경기 성남시 수정구 수진동 88번지 102호,"(경기 성남시 수정구 제일로 148, 102호)",031-752-9999
572,신흥1호,경기 성남시 수정구 신흥2동 1741-25,(경기 성남시 수정구 수정로 260),031-745-5898
573,태평1동,경기 성남시 수정구 태평동 6974-1,(경기 성남시 수정구 성남대로 1233),031-757-8787
574,금광1호,경기 성남시 중원구 금광동 2706,(경기 성남시 중원구 자혜로 82-1),031-732-9997
575,상대원1호,경기 성남시 중원구 상대원동 5027,(경기 성남시 중원구 희망로 321),031-744-2004
576,은행1호,경기 성남시 중원구 은행동 663-3,(경기 성남시 중원구 산성대로 572),031-745-5494
577,고색,경기 수원시 권선구 고색동 31-4,(경기 수원시 권선구 매송고색로 737),031-292-0050
578,곡반정,경기 수원시 권선구 곡반정동 584-4,(경기 수원시 권선구 동수원로 58번길 18),031-236-4991
579,권선1호,경기 수원시 권선구 권선동 1260-5,(경기 수원시 권선구 권광로 54),031-232-0292
580,금곡1호,경기 수원시 권선구 금곡동 1088-1,"(경기 수원시 권선구 금곡로118번길 10, 114호,115호)",031-295-2339
581,탑동,경기 수원시 권선구 탑동 766-2,(경기 수원시 권선구 탑동로 56),031-291-0128
582,호매실,경기 수원시 권선구 호매실동 80-1,(경기 수원시 권선구 금호로 64-3),031-292-9252
583,광교1호,경기 수원시 영통구 이의동 1332 CB 4~5호,(경기 수원시 영통구 센트럴타운로 85),031-212-1998
584,매탄1호,경기 수원시 영통구 매탄동 1170-4,(경기 수원시 영통구 매탄로 45(매탄동 1층)),031-222-3120
585,매탄2호,경기 수원시 영통구 매탄2동 199-69,(경기 수원시 영통구 매영로 47),031-211-2616
586,매탄3호,경기 수원시 영통구 매탄4동 208-21,(경기 수원시 영통구 매탄로 184),031-216-5425
587,신영통1호,경기 수원시 영통구 망포동 369-3,(경기 수원시 영통구 영통로 161),031-273-7333
588,영통1호,경기 수원시 영통구 영통동 1005-13,(경기 수원시 영통구 영일로 25),031-203-0960
589,영통2호,"경기 수원시 영통구 영통동 945-4, 한솔프라자 109호","(경기 수원시 영통구 봉영로 1767, 한솔프라자 109호)",031-205-9245
590,연무1호,경기 수원시 장안구 연무동 249-13,(경기 수원시 장안구 월드컵로 420-2),031-253-9244
591,율전1호,경기 수원시 장안구 율전동 305-6,(경기 수원시 장안구 율전로 107),031-292-9898
592,정자1호,경기 수원시 장안구 정자동 41-2,(경기 수원시 장안구 장안로 111),031-245-4599
593,정자2호,"경기 수원시 장안구 천천동 502-6, 1층","(경기 수원시 장안구 정자로 28(천천동), 1층)",031-251-2332
594,조원1호,경기 수원시 장안구 조원동 729-12,(경기 수원시 장안구 조원로 100-1),031-248-5425
595,파장,경기 수원시 장안구 송죽동 216-1,(경기 수원시 장안구 경수대로 998),031-245-9252
596,매교,경기 수원시 팔달구 매교동 186-3,(경기 수원시 팔달구 정조로 658),031-238-3690
597,아주대,경기 수원시 팔달구 우만동 85-3,(경기 수원시 팔달구 중부대로 239번길 5),031-212-0404
598,우만1호,경기 수원시 팔달구 우만1동 466-4,(경기 수원시 팔달구 월드컵로 371),031-242-9985
599,화서1호,"경기 수원시 팔달구 화서동 703 꽃뫼양지마을(대우아파트) 상가 105, 106호","(경기 수원시 팔달구 수성로 101번길 20, 꽃뫼양지마을(대우아파트) 상가 105, 106호)",031-292-5225~6
600,화서2호,경기 수원시 팔달구 화서1동 135-2,(경기 수원시 팔달구 화양로 17-2),031-257-9959
601,거모,경기 시흥시 거모동 1728-2,(경기 시흥시 군자로 468-1),031-491-9202
602,능곡연성,경기 시흥시 능곡동 545,(경기 시흥시 승지로 69),031-318-1991
603,배곧신도시1호,"경기 시흥시 정왕동 2475 에이플러스 115, 116호","(경기 시흥시 배곧4로 18 에이플러스 115, 116호)",031-433-1992
604,신천1호,경기 시흥시 신천동 707-50,(경기 시흥시 대골안길 92),031-316-9797
605,은행1호,경기 시흥시 대야동 580-4,(경기 시흥시 은행로 166),031-404-9945
606,장곡,"경기 시흥시 장곡동 802-1, 금강프라자 1층 108호","(경기 시흥시 장곡로 74, 금강빌딩 1층 108호)",031-404-5220
607,정왕1호,경기 시흥시 정왕동 1593-2,(경기 시흥시 봉우재로 16),031-432-5001
608,정왕2호,"경기 시흥시 정왕동 1875-2, 미주상가102",(경기 시흥시 정왕신길로49번길 28),031-432-5844
609,정왕3호,"경기 시흥시 정왕동 1726-1, 광개토빌딩 104호","(경기 시흥시 정왕대로 174, 광개토빌딩 104호)",031-488-9677
610,고잔1호,"경기 안산시 단원구 고잔동 763-2, 104호","(경기 안산시 단원구 광덕3로 253, 104호)",031-402-9959
611,고잔2호,경기 안산시 단원구 와동 685-6,(경기 안산시 단원구 삼일로 455-1),031-482-4241
612,선부1호,경기 안산시 단원구 선부동 1064-5,(경기 안산시 단원구 석수로 31-1),031-414-0277~8
613,원곡1호,경기 안산시 단원구 원곡동 754-6,(경기 안산시 단원구 원곡로 58),031-494-9515~6
614,본오1호,경기 안산시 상록구 본오동 879-10,(경기 안산시 상록구 샘골로 157),031-419-4991
615,부곡,경기 안산시 상록구 부곡동 670-2,(경기 안산시 상록구 부곡로 107),031-501-9924~5
616,사동1호,경기 안산시 상록구 사동 1201,"(경기 안산시 상록구 용신로 262, 101호)",031-438-9200
617,사동2호,경기 안산시 상록구 사동 1376-7,"(경기 안산시 상록구 항가울로 54-1, 102103호)",031-502-9935~6
618,월피,"경기 안산시 상록구 월피동 442-26, 1층","(경기 안산시 상록구 충장로 584, 1층)",031-413-9988
619,일동,경기 안산시 상록구 일동 89-3,(경기 안산시 상록구 구룡로 19-1),031-501-9953~4
620,공도1호,경기 안성시 공도읍 만정리 417-98,(경기 안성시 공도읍 공도로 68),031-655-8295
621,안성1호,경기 안성시 연지동 94,(경기 안성시 안성맞춤대로 1092),031-674-4565
622,안성2호,경기 안성시 인지동 397-1,(경기 안성시 장기로 68-1),031-675-8886
623,진사리,"경기 안성시 공도읍 진사리 348, 서지프라자 106호","(경기 안성시 공도읍 진건중길 39, 서지프라자 106호)",031-653-8882
624,관양,경기 안양시 동안구 관양동 1437-20 1층,"(경기 안양시 동안구 관악대로 419-1, 1층)",031-422-2829
625,비산1호,경기 안양시 동안구 비산동 414-14,(경기 안양시 동안구 경수대로 884번길 21),031-388-9987
626,평촌1호,경기 안양시 동안구 평촌동 922-2,(경기 안양시 동안구 평촌대로 122),031-381-5585
627,평촌3호,"경기 안양시 동안구 관양동 1586, 한가람한양아파트 상가동 108호","(경기 안양시 동안구 학의로 126, 한가람한양아파트 상가동 108호)",031-382-0555
628,호계1호,경기 안양시 동안구 호계2동 927-2,(경기 안양시 동안구 귀인로 104),031-455-9989
629,석수1호,경기 안양시 만안구 석수1동 177-6,(경기 안양시 만안구 경수대로 1207),031-473-9922
630,안양1번가,경기 안양시 만안구 안양동 674-241,(경기 안양시 만안구 장내로 143번길 34),031-444-1991
631,안양1호,경기 안양시 만안구 안양동 765-8,(경기 안양시 만안구 병목안로 87),031-444-9242~3
632,안양2호,경기 안양시 만안구 안양 5동 448-22 진명빌딩 103호,"(경기 안양시 만안구 냉천로 126, 진명빌딩 103호)",031-443-0064~5
633,고읍1호,경기 양주시 광사동 657   103호,"(경기 양주시 고읍남로 23, 103호)",031-845-1212
634,덕소1호,경기 남양주시 와부읍 덕소리 141-91,(경기 남양주시 와부읍 수레로 44 1층),031-577-8080
635,덕정1호,경기 양주시 덕정동 240-27,(경기 양주시 고암길 358),031-858-7447
636,도농1호,경기 남양주시 도농동 153-5,(경기 남양주시 경춘로 384),031-568-9289
637,마석,경기 남양주시 화도읍 마석우리 384-8,(경기 남양주시 화도읍 마석로 100),031-559-9266
638,백석,경기 양주시 백석읍 복지리 168-3,(경기 양주시 백석읍 호명로 38),031-829-9282
639,별내1호,경기 남양주시 별내동 1078-3,(경기 남양주시 별내면 별내5로 5번길 47),031-527-1998
640,별내2호,경기 남양주시 별내동 846-7,(경기 남양주시 덕송2로6번길 16-48),031-572-1991
641,오남,경기 남양주시 오남읍 오남리 205-19,(경기 남양주시 오남읍 진건오남로 647),031-574-9981
642,진건,경기 남양주시 진건읍 사능리 353-4,(경기 남양주시 진건읍 사릉로 390),031-528-9994
643,진접장현리,경기 남양주시 진접읍 장현리 672-1,(경기 남양주시 진접읍 봉현로 14),031-571-2772
644,진접지구,경기 남양주시 진접읍 금곡리 1041-1,(경기 남양주시 진접읍 해밀예당2로 119),031-527-0401
645,창현,경기 남양주시 화도읍 창현리 462-3,(경기 남양주시 화도읍 창현로 19),031-559-9911
646,퇴계원,경기 남양주시 퇴계원면 퇴계원리 290-14,(경기 남양주시 퇴계원면 퇴계원로 33),031-573-9952
647,평내,경기 남양주시 평내동 203-2,(경기 남양주시 경춘로 1298 혜림빌딩),031-593-9929
648,호평,경기 남양주시 호평동 650-1,(경기 남양주시 호평로 64-1),031-511-7892
649,양평,경기 양평군 양평읍 양근리 183-4,(경기 양평군 양평읍 시민로 44),031-775-1481
650,여주1호,경기 여주군 여주읍 하리 343-11,(경기 여주군 여주읍 하리 343-11),031-885-1655~6
651,전곡,경기 연천군 전곡읍 전곡리 302-11,(경기 연천군 전곡읍 온골로 43번길 3),031-833-1991
652,세마1호,경기 오산시 내삼미동 856-8,(경기 오산시 수청로 62),031-372-1994
653,운암2호,"경기 오산시 오산동 919-3, 102호","(경기 오산시 운암로 117, 102호)",031-378-9229
654,원동,경기 오산시 오산동 881-7,"(경기 오산시 오산로 199 동양프라자 101호, 102호)",031-378-2277~8
655,구갈2지구,경기 용인시 기흥구 구갈리 345-3,(경기 용인시 기흥구 구갈로 92),031-281-9282
656,구성1호,경기 용인시 기흥구 마북동 370-9,(경기 용인시 기흥구 구성로 19),031-283-9936
657,동백1호,경기 용인시 기흥구 동백동 614-5,(경기 용인시 기흥구 평촌1로 1번길 7),031-274-0033
658,흥덕,경기 용인시 기흥구 영덕동 1007-6,(경기 용인시 기흥구 흥덕1로 52),031-215-9253
659,상현1호,경기 용인시 수지구 상현동 3-4,(경기 용인시 수지구 만현로20),031-276-1566
660,성복,경기 용인시 수지구 성복동 162-3,(경기 용인시 수지구 성복2로 100),031-264-1991
661,수지1지구,경기 용인시 수지구 풍덕천동 29-10,(경기 용인시 수지구 수지로 342번길 17),031-265-5568~9
662,수지2지구,경기 용인시 수지구 풍덕천동 697,(경기 용인시 수지구 정평로 102),031-261-2335
663,죽전,경기 용인시 수지구 죽전동 1151 101호,(경기 용인시 수지구 탄천상로 7 101호),031-265-6222~1
664,둔전,경기 용인시 처인구 포곡읍 둔전리 400-2,(경기 용인시 처인구 포곡읍 포곡로 79),031-333-9245
665,용인1호,경기 용인시 처인구 김량장동 293-24,(경기 용인시 처인구 중부대로 1355),031-339-0725
666,용인2호,경기 용인시 처인구 마평동 657-14,(경기 용인시 처인구 금령로 141),031-335-5478
667,내손갈뫼,경기 의왕시 내손1동 755-4 명성프라자,(경기 의왕시 계원대학로 28),031-426-0394~5
668,오전고천,"경기 의왕시 오전동 276-1, 114호","(경기 의왕시 경수대로 292, 114호)",031-477-1150~1
669,인덕원,경기 의왕시 포일동 662,"(경기 의왕시 포일세거리로 3, 파레사타워 102호)",031-422-9114
670,포일내손,경기 의왕시 내손동 652-21,(경기 의왕시 내손순환로 186-1),031-462-1991
671,금오,경기 의정부시 금오동 473-4,(경기 의정부시 부용로 105),031-853-0092
672,녹양,경기 의정부시 가능동 92-51,(경기 의정부시 서부로 743),031-829-9989
673,민락,경기 의정부시 민락동 834-3,(경기 의정부시 오목로 225번길 89-41),031-872-1991
674,신곡,경기 의정부시 신곡동 484,(경기 의정부시 능곡로 26번길 23),031-821-7795~6
675,신곡2호,경기 의정부시 신곡1동 707-2,(경기 의정부시 신곡로 61),031-855-9992
676,용현1호,경기 의정부시 용현동 18-15,(경기 의정부시 충의로 37),031-853-9981~2
677,장암,경기 의정부시 신곡1동 336,(경기도\ 의정부시 동일로 468),031-840-9290
678,호원1호,경기 의정부시 호원동 466-15,(경기 의정부시 평화로 156),031-826-0468
679,이천1호,경기 이천시 창전동 458-17,(경기 이천시 영창로 247),031-635-9014
680,이천하이닉스,경기 이천시 부발읍 아미리 735,(경기 이천시 부발읍 경충대로 2110길 13),"031-637-3392,0305"
681,증포,경기 이천시 증포동 153-5,(경기 이천시 이섭대천로 1358),031-637-8292
682,가람마을,경기 파주시 와동동 1557-1,(경기 파주시 가람로 47),031-946-4472
683,교하신도시,경기 파주시 다율동 1001-6,(경기 파주시 순못길 7),031-945-9285
684,금촌1호,경기 파주시 금촌동 790-10 1층,"(경기 파주시 황골로 75, 1층)",031-941-4043
685,금촌로데오,경기 파주시 금촌동 986-2,(경기 파주시 금빛로 27),031-946-9222
686,문산,경기 파주시 문산읍 문산리 17-345 1층 5호,"(경기 파주시 문산읍 문향로 30, 1층 5호)",031-953-5848
687,봉일천,경기 파주시 조리읍 봉일천리 142-3,(경기 파주시 조리읍 고봉로 1032),031-944-8279
688,운정1호,경기 파주시 동패동 1758,(경기 파주시 와석순환로 135),031-944-2228
689,비전1호,경기 평택시 비전동 272-7,(경기 평택시 평택5로 176),031-658-1255
690,비전2호,경기 평택시 비전1동 793-7,(경기 평택시 평택2로 117),031-618-3678
691,세교,"경기 평택시 세교동 558 우성꿈그린@상가 105,106호","(경기 평택시 세교3로 5 우성꿈그린@상가 105,106호)",031-651-9982
692,송탄1호,경기 평택시 서정동 843-10,(경기 평택시 서정로 251),031-667-7771
693,송탄2호,경기 평택시 지산동 995,(경기 평택시 지산천로 63),031-668-9949
694,안중1호,경기 평택시 안중읍 현화리 831,(경기 평택시 안중읍 안현로서8길 57),031-682-1714
695,팽성1호,경기 평택시 팽성읍 안정리 26-49,(경기 평택시 팽성읍 안정로 73),031-691-3424
696,포천,경기 포천시 신읍동 47-10,(경기 포천시 구절초로 44),031-531-9982~3
697,덕풍1호,경기 하남시 덕풍동 309-64,(경기 하남시 하남대로 859),031-792-8288
698,미사1호,경기 하남시 망월동 1004-1,(경기 하남시 미사강변북로 30번길 127),031-796-7887
699,신장1호,경기 하남시 신장동 447-28,(경기 하남시 하남대로 771),031-791-9292
700,신장2호,경기 하남시 천현동 40-13,(경기 하남시 천현로 130),031-792-1992
701,동탄1호,경기 화성시 반송동 42-6,(경기 화성시 동탄지성로 92),031-613-9294
702,동탄2호,경기 화성시 반송동 217-6,(경기 화성시 동탄솔빛로 48),031-8015-1992
703,발안1호,경기 화성시 향남면 행정리 426-11,(경기 화성시 향남읍 행정서로 3길 4-32),031-354-9559
704,병점1호,"경기 화성시 병점동 379-10 병점프라자 109호, 110호","(경기 화성시 경기대로 1014 병점프라자 109호, 110호)",031-239-1991
705,병점2호,경기 화성시 진안동 914-1,(경기 화성시 효행로 1051),031-224-1991
706,봉담1호,경기 화성시 상리 26-8,(경기 화성시 봉담읍 삼천병마로 1268),031-278-9277
707,와우리,경기 화성시 기안동 338-4,(경기 화성시 효행로 249),031-223-9272
708,강남,강원 강릉시 노암동 708-1,(강원 강릉시 임영로 62),033-644-5582
709,교동1호,강원 강릉시 교1동 1863-3,(강원 강릉시 솔올로 34),033-642-9958
710,성덕,강원 강릉시 입암동 499-6번지,(강원 강릉시 용지로 51-1),033-653-9285
711,주문진,강원 강릉시 주문진읍 교항리 119-11,(강원 강릉시 주문진읍 주문로 4),"033-661-3505,662-3505"
712,포남,강원 강릉시 포남1동 1140-1,(강원 강릉시 경강로 2220),033-647-2563
713,고성,강원 고성군 간성읍 신안리 218,(강원 고성군 간성읍 간성로 49),033-681-9995~6
714,북삼,강원 동해시 쇄운동 84-5,(강원 동해시 청운로 73),033-522-0556~7
715,천곡,강원 동해시 천곡동 1044-2,(강원도 동해시 한섬로 30),033-532-9296~7
716,삼척,강원 삼척시 남양동 17-2,(강원 삼척시 진주로 41),033-575-0047~8
717,교동,강원 속초시 교동 974-2,(강원 속초시 수복로 17-1),033-637-0085
718,동명,강원 속초시 동명동 1-18,(강원 속초시 영금정로29),033-632-1991
719,조양,강원 속초시 조양동 1540 부영파아트 상가동 102호,(강원 속초시 조양로142번길 12),033-635-2806
720,양구,강원 양구군 양구읍 상리 227-105,(강원 양구군 양구읍 중앙길 47),033-481-4492
721,양양,강원 양양군 양양읍 남문리 125,(강원 양양군 양양읍 양양로 78-3),033-673-2460
722,영월,강원 영월군 영월읍 하송1리 6반 178-11,(강원 영월군 영월읍 하송1리 6반 178-11),"033-375-0888,0887"
723,개운,강원 원주시 개운동 395-23,(강원 원주시 행구로 32),"033-761-9959,762-2003"
724,단계,강원 원주시 단계동 837,(강원 원주시 봉화로 48),033-743-1099
725,단구,강원 원주시 관설동 1701-4,(강원 원주시 나비허리길 154),033-762-3995
726,명륜,강원 원주시 명륜동 539,(강원 원주시 남원로 527),"033-765-9922,761-9908"
727,무실,강원 원주시 무실동 1664-3,(강원 원주시 만대로 176),033-744-9999
728,문막,강원 원주시 문막읍 건등리 1705-3,(강원 원주시 문막읍 건등로 36),033-748-2255
729,우산,강원 원주시 우산동 226-10,(강원 원주시 우산초교길 58),"033-743-9985,9927"
730,일산,강원 원주시 원동 278-7,(강원 원주시 남산로 59),"033-761-9225,9975"
731,태장,강원 원주시 태장동 북원로 2716-1,(강원 원주시 태장동 북원로 2716-1),033-731-9945
732,혁신,강원 원주시 반곡동 1880-7,"(강원 원주시 양지로 14 , 114호)",033-748-9993
733,원통,강원 인제군 북면 원통리 645-32,(강원 인제군 북면 원통로 174-1),033-463-19991998
734,사북고한,강원 정선군 사북읍 사북리 344-56,(강원 정선군 사북읍 사북중앙로 58-1),"033-591-9282,8555"
735,교대,강원 춘천시 석사동 291-15,(강원 춘천시 공지로 104),033-261-6886
736,석사1호,강원 춘천시 석사동 748-18(33통405),"(강원 춘천시 애막골길11번길 2, (33통405))",033-263-6262
737,신사우동,강원 춘천시 우두동 1052-29,(강원 춘천시 영서로 2767),033-244-9505
738,춘천시청,강원 춘천시 소양로 3가 181-9,(강원 춘천시 금강로 24),033-254-1991
739,퇴계1호,강원 춘천시 퇴계동 900-10,(강원도 춘천시 행촌로 56),033-244-2477
740,퇴계2호,강원 춘천시 퇴계동 87,(강원 춘천시 안마산로 199),033-264-8833
741,효자,강원 춘천시 효자1동 661-16,(강원 춘천시 효자로 115),033-252-9949
742,후평1호,강원 춘천시 후평동 836-1,(강원 춘천시 후석로 270),033-244-9789
743,후평사거리,강원 춘천시 후평1동 693-4,(강원 춘천시 춘천로 299),033-251-4593~4
744,태백1호,강원 태백시 상장동 87-36,(강원 태백시 황지로 13-1),033-552-4999
745,홍천,강원 홍천군 홍천읍 신장대리 8-9,(강원 홍천군 홍천읍 마지기로 11-2),033-435-9996
746,사창,강원 화천군 사내면 사창리 457-12,(강원 화천군 사내면 사내로5길 13),033-441-1991
747,화천,강원 화천군 화천읍 하리 44-45,(강원 화천군 화천읍 하리 44-45),033-442-9995~6
748,횡성,강원 횡성군 횡성읍 읍하리 107-48,(강원 횡성군 횡성읍 삼일로 9-2),033-344-1030
749,단양,충북 단양군 단양읍 도전리 523,(충북 단양군 단양읍 수변로 63),043-421-1997
750,보은,충북 보은군 보은읍 삼산리 153-2,(충북 보은군 보은읍 보은로 137),043-542-0036
751,금왕,충북 음성군 금왕군 무극리 629,(충북 음성군 금왕읍 무극로 204-1),043-883-8292
752,대소,충북 음성군 대소면 태생리 539-170,(충북 음성군 대소면 대동로 865),043-883-7272
753,음성,충북 음성군 음성읍 읍내리 354-3,(충북 음성군 음성읍 시장로 67),043-873-9292
754,장호원감곡,충북 음성군 감곡면 왕장리 523-8,(충북 음성군 감곡면 장감로 154),043-883-9277
755,명동,충북 제천시 명동 198번지,(충북 제천시 용두천로5길 10),"043-648-9983,9985"
756,신백,충북 제천시 신백동 214-7,(충북 제천시 의병대로 36길 29),043-652-9912~3
757,장락,충북 제천시 장락동 877,(충북 제천시 용두천로 260),043-642-9901~2
758,청전,충북 제천시 의림동 7-26,(충북 제천시 칠성로10길 7),043-652-0097
759,증평,충북 증평군 증평읍 초중리 8-1,(충북 증평군 증평읍 중앙로 197),043-838-2245
760,광혜원,충북 진천군 광혜원면 광혜원리 503-7,(충북 진천군 광혜원면 중리1길 7),043-535-5292
761,진천,충북 진천군 진천읍 읍내리 415-2,(충북 진천군 진천읍 상산로 64),043-534-9024
762,오창1호,충북 청원군 오창면 각리 650-1,(충북 청원군 오창읍 오창중앙로 123-7),043-217-9982
763,금천광장,"충북 청주시 상당구 용암동 411,412","(충북 청주시 상당구 용암동 411,412)",043-292-8383
764,용암1호,충북 청주시 상당구 용암동 2163번지,(충북 청주시 상당구 원봉로 79),043-295-1999
765,우암동,충북 청주시 상당구 우암동 123-81,(충북 청주시 상당구 상당로 220),043-252-9944
766,가경2호,충북 청주시 흥덕구 개신동 696 매직타워 1층 110호,"(충북 청주시 흥덕구 복대로 19, 매직타워 1층 110호)",043-233-9949
767,복대1호,충북 청주시 흥덕구 복대동 865-4,(충북 청주시 흥덕구 성봉로 319-1),"043-273-9989,9949"
768,봉명1호,충북 청주시 흥덕구 봉명동 2813,(충북 청주시 흥덕구 월명로 178),"043-272-9939,9989"
769,사직1호,충북 청주시 흥덕구 사직2동 595-12,(충북 청주시 흥덕구 호국로 71),043-262-0507~6
770,산남성화,충북 청주시 흥덕구 성화동 886번지 101호,"(충북 청주시 흥덕구 구룡산로51번가길 10, 101호)",043-239-9942
771,오송,충북 청주시 흥덕구 오송읍 호송읍 만수리 521,(충북 청주시 흥덕구 오송읍 오송생명로 200),043-236-1992
772,운천신봉,충북 청주시 흥덕구 운천동 1366,(충북 청주시 흥덕구 사운로 244-1),043-265-6555
773,하복대,충북 청주시 흥덕구 복대동 2960,(충북 청주시 흥덕구 진재로 34),043-236-9994
774,갱고개,충북 충주시 갱고개로 41,(충북 충주시 교현동 173-11),043-842-9929
775,봉방문화교현,충북 충주시 교현동 624-6,(충북 충주시 국원대로 83),043-857-9982~3
776,성내용산,충북 충주시 용산동 598,(충북 충주시 형설로 110),043-844-2626~5
777,연수칠금,충북 충주시 연수동 820번지,(충청북도 충주시 연원로 2),043-853-3533
778,계룡대,충남 계룡시 엄사면 엄사리 253-2,(충남 계룡시 엄사면 번영로 68),042-841-9902~3
779,신관,충남 공주시 신관동 24-25,(충남 공주시 번영1로 138),041-881-5599
780,옥룡,충남 공주시 옥룡동 308-1,(충남 공주시 무령로 301),041-856-9892
781,금산,충남 금산군 금산읍 상리 47-10,(충남 금산군 금산읍 금산로 1503-2),041-751-9966
782,취암,충남 논산시 내동 628,(충남 논산시 중앙로 214),041-736-4966
783,기지시,충남 당진시 반촌리 861-20,(충남 당진시 송악읍 반촌로 140-39),041-356-1992
784,복운,충남 당진시 송악면 복운리 1642-11,(충남 당진시 송악읍 신복운로 171),041-354-1412~3
785,신평,충남 당진시 신평면 거산리 13-4번지 1층,"(충남 당진시 신평면 거산3거리길 46, 1층)",041-362-4477
786,읍내,충남 당진시 읍내동 850,(충남 당진시 무수동로 196(읍내동)),041-357-9986~7
787,채운,충남 당진시 읍내동 1541,(충남 당진시 우두로 23),041-355-9995
788,합덕,충남 당진시 합덕읍 운산리 266-2,(충남 당진시 합덕읍 합우로 136),041-362-9982~3
789,동대,충남 보령시 동대동 1766,(충남 보령시 작은오랏5길 9),041-936-9908~9
790,부여,충남 부여군 부여읍 관북리 133-5,(충남 부여군 부여읍 석탑로 76-1),041-832-1992
791,대산,충남 서산시 대산읍 산리 129-5,(충남 서산시 대산읍 구진로 27),041-667-1992
792,동문,충남 서산시 동문동 406-2,(충남 서산시 안견로 153-3),041-668-7272
793,서산테크노,충남 서산시 오사리 1666,(충남 서산시 성연면 성연3로 111),041-665-1992
794,석림,충남 서산시 동문동 999-6,(충남 서산시 안견로 265),041-662-3302
795,읍내,충남 서산시 읍내동 276-5,(충남 서산시 문화로 19),041-668-8882~3
796,서천,충남 서천군 군사리 718-11,(충남 서천군 서천로 127),041-953-6000
797,권곡,충남 아산시 권곡동 549-26,(충남 아산시 번영로 182),041-549-7745
798,배미,충남 아산시 배미동 239-17,(충남 아산시 서부북로 1006),041-547-1007~8
799,배방1호,충남 아산시 배방읍 공수리 89-28,(충남 아산시 배방읍 모산로 153-1),041-533-9912~3
800,온천,충남 아산시 온천동 1310,(충남 아산시 아산로 70),041-534-7282
801,용화,충남 아산시 용화동 714,(충남 아산시 온중로 5),041-549-9008
802,예산,충남 예산군 예산읍 산성리 709-4,(충남 예산군 예산읍 역전로 150-1),"041-334-8292,8592"
803,목천,충남 천안시 동남구 목천읍 신계리 134-18,(충남 천안시 동남구 목천읍 충절로 890),041-569-1991
804,병천,충남 천안시 동남구 병천면 병천리 156-5,(충남 천안시 동남구 병천면 병천2로 3),041-567-7272
805,신방1호,충남 천안시 동남구 신방동 74-19 부흥빌딩 104호,"(충남 천안시 동남구 신촌4로 38, 부흥빌딩 104호)",041-575-3366.3250
806,신방통정,충남 천안시 동남구 신방동 1538,(충남 천안시 동남구 통정10로 33-6),041-579-8892
807,신부1호,충남 천안시 동남구 신부동 641 1층,"(충남 천안시 동남구 터미널2로 42, 1층)",041-558-9006~7
808,원성,충남 천안시 동남구 원성2동 518-4,(충남 천안시 동남구 버들로 144),041-621-9927
809,청수,충남 천안시 동남구 구성동 388-76,(충남 천안시 동남구 청수로 127),"041-621-3321,3320"
810,두정,충남 천안시 서북구 성정2동 1211,(충남 천안시 서북구 성정중7길 18),041-621-9282
811,백석,충남 천안시 서북구 백석동 910번지 주공아파트상가 103호,"(충남 천안시 서북구 백석3로 70, 주공그린빌11단지3차아파트 상가 103호)",041-553-5592
812,불당,충남 천안시 서북구 불당동 1630,(충남 천안시 서북구 불당33길 40),041-566-1991
813,성거,충남 천안시 서북구 성거읍 저리 65-1,(충청 천안시 서북구 성거읍 성거길 107),041-556-9595
814,성환1호,충남 천안시 서북구 성환읍 매주리 325-5 외 1,(충남 천안시 서북구 성환읍 연암율금로 472),041-588-3392
815,쌍용1호,충남 천안시 서북구 쌍용3동 1998번지,(충청남도 천안시 서북구 쌍용8길 16),041-576-4552~3
816,쌍용2호,충남 천안시 서북구 쌍용2동 1107-1,(충남 천안시 서북구 미라8길 10),041-573-0202
817,직산1호,충남 천안시 서북구 직산읍 삼은리 76-177,(충남 천안시 서북구 직산읍 봉주로 23),041-585-2580~1
818,태안,충남 태안군 태안읍 동문리 264-7,(충남 태안군 태안읍 동문1길 45),041-672-0246
819,내포1호,충남 홍성군 홍북면 신경리 1181번지 승우빌딩 107호,(충남 홍성군 홍북면 청사로 36 승우빌딩 107호),041-631-8580
820,오관,충남 홍성군 홍성읍 대교리 577,(충남 홍성군 홍성읍 의사로 53-2),041-632-6364~5
821,고창,전북 고창군 고창읍 교촌리 506,(전북 고창군 고창읍 중앙로 309),063-562-2000
822,경암조촌,전북 군산시 경장동 510-19 1층,"(전북 군산시 번영로 74, 1층)",063-445-8292~3
823,군산대,전북 군산시 미룡동 364-5,(전북 군산시 미제3길 2),063-468-9842~3
824,나운1호,전북 군산시 나운동 834-7,(전북 군산시 나운로 82),063-468-5545
825,미장수송,전북 군산시 수송동 836-8,(전북 군산시 수송동 동수송4길 8),063-462-1994
826,소룡산북,전북 군산시 소룡동 1545-5번지,(전북 군산시 칠성안2길 94-3),063-451-1991
827,지곡,전북 군산시 지곡동 495-1,(전북 군산시 백토로 231),063-465-1993
828,김제,전북 김제시 신풍동 594-4번지,(전북 김제시 도작8길 38),063-548-9999
829,남원,전북 남원시 도통동 387-12,(전북 남원시 시청로 25),063-631-7000
830,무주,전북 무주군 무주읍 읍내리 962,(전북 무주군 무주읍 주계로 67-1),063-324-2231
831,무주구천,전북 무주군 설천면 삼공리 364-4,(전북 무주군 설천면 구천동로 852),063-322-1997
832,부안,전북 부안군 부안읍 봉덕리 826-1,(전북 부안군 부안읍 학동길 22-1),063-584-1661
833,순창,전북 순창군 순창읍 순화리 282-6,(전북 순창군 순창읍 경천로 57),063-653-5995
834,봉동,전북 완주군 봉동읍 둔산리 907-5  101호,"(전북 완주군 봉동읍 완주산단8로 13, 101호)",063-261-5592
835,삼례우석대,전북 완주군 삼례읍 후정리 13-8,(전북 완주군 삼례읍 삼례로 430),063-291-1599
836,동산,전북 익산시 마동 344-5,(전북 익산시 서동로 95),063-843-3100
837,모현,전북 익산시 모현동1가 857,(전북 익산시 배산로 165-5),063-837-1991
838,부송,전북 익산시 부송동 710-5,(전북 익산시 하나로 0길 84),"063-831-1811,1822"
839,영등1호,전북 익산시 영등동 766-1,(전북 익산시 고봉로 274),063-833-1664
840,영등2호,전북 익산시 영등동 843-5,(전북 익산시 무왕로 15길 15),063-836-0078
841,원광대,"전북 익산시 신동 764-4 시즈퍼스트 상가112호, 113호","(전북 익산시 익산대로68길 51 (시즈퍼스트 상가112호, 113호))",063-857-1991
842,임실,전북 임실군 임실읍 이도리 294,(전북 임실군 임실읍 감천로 20),063-643-9200
843,동산조촌,전북 전주시 덕진구 반월동 230-6,(전북 전주시 덕진구 혁신로 718),063-212-9282
844,솔내,전북 전주시 덕진구 송천동1가 405-1,(전북 전주시 덕진구 송천로 42),063-244-1991
845,송천,전북 전주시 덕진구 송천동2가 244-10,(전북 전주시 덕진구 붓내3길 17),"063-252-5552,251-3141"
846,아중,전북 전주시 덕진구 우아동 2가  860-7,(전북 전주시 덕진구 건산로 263),063-242-1663~4
847,전북대,전북 전주시 덕진구 덕진동1가 1314-201,(전북 전주시 덕진구 덕진광장로 12),063-254-2033
848,하가덕진,전북 전주시 덕진구 덕진동2가 670-1,(전북 전주시 덕진구 가리내7길 13(덕진동2가)),063-278-1991
849,호성,전북 전주시 덕진구 인후동2가 1569-44,(전북 전주시 덕진구 견훤로 423),063-245-9293~4
850,삼천1호,전북 전주시 완산구 삼천동1가 621,(전북 전주시 완산구 용리로 124),063-227-9979
851,서곡효자,전북 전주시 완산구 효자동3가 1609-16,(전북 전주시 완산구 홍산로 375 104호),063-236-1992
852,서신,전북 전주시 완산구 서신동 938-5,(전라북도 전주시 완산구 고사평4길 7),"063-278-0892,0876"
853,신시가지,전북 전주시 완산구 효자동2가 1327-1,(전북 전주시 완산구 봉곡로 114),063-229-9252
854,안행,전북 전주시 완산구 효자동1가 202-1,(전북 전주시 완산구 효동2길 1),063-226-1994
855,중앙,전북 전주시 완산구 고사동 470-3,(전북 전주시 완산구 고사동 전주객사3길 35),063-282-9123
856,중화산,전북 전주시 완산구 중화산동 2가 616-12,(전북 전주시 완산구 중화산로 58),063-228-5060
857,평화1호,전북 전주시 완산구 평화동2가 230-112,(전북 전주 완산구 평화로 135),063-229-3334~5
858,혁신,전북 전주시 완산구 중동 9-18,(전북 전주시 완산구 오정2길 6),063-214-1991
859,효자,전북 전주시 완산구 효자동1가 652,(전북 전주시 완산구 거마평로 125),063-229-2992~3
860,상동,전북 정읍시 장명동 169-10,(전북 정읍시 관통로 20-1),063-535-9999
861,수성,전북 정읍시 수성동 944-9,(전북 정읍시 수성로 19),"063-533-9999,534-9282"
862,강진,전남 강진군 강진읍 남성리 5-4,(전남 강진군 강진읍 영랑로3길 7),061-434-8599
863,읍내,전남 광양시 광양읍 칠성리 947-3,(전남 광양시 광양읍 칠성리),061-761-9985
864,중마1호,전남 광양시 마동 1037-4,(전남 광양시 사동로 199),061-791-9984
865,중마2호,전남 광양시 중동 1654-3,(전남 광양시 광장로 149-1),061-795-9962~3
866,나주,전남 나주시 대호동 1040-7,(전남 나주시 대호길 49-1),061-332-1369
867,빛가람1호,전남 나주시 빛가람동 190-3,(전남 나주시 상야1길 20),061-336-5999
868,담양,전남 담양군 담양읍 백동리 247-7,(전남 담양군 담양읍 죽향대로 1204),061-383-9599
869,삼학,전남 목포시 산정동 1386-8,(전남 목포시 남해로 61),061-245-1880
870,상동,전남 목포시 상동 174-7,(전남 목포시 중화길18번길 24),061-277-5539
871,옥암,전남 목포시 옥암동 1248-2,(전남 목포시 남악1로 52번길 8),061-980-9292
872,용해,전남 목포시 용해동 769-5,(전남 목포시 용당로 276),061-274-9989
873,원산,전남 목포시 산정동 1693-3,(전남 목포시 청호로 141),061-276-5582
874,하당,전남 목포시 상동 1116-8번지,(전남 목포시 평화로 10),061-284-0070
875,남악,전남 무안군 삼향읍 남악리 1577 골든스위트 125호,(전남 무안군 삼향읍 남악4로 50),061-287-9959
876,무안읍,전남 무안군 무안읍 성남리 813-45,(전남 무안군 무안읍 면성1길 129),061-454-1997
877,보성,전남 보성군 보성읍 보성리 831-19,(전남 보성군 보성읍 중앙로 101),061-852-9942
878,금당1호,전남 순천시 조례동 1612번지 1-4호,(전남 순천시 장선배기길 77  1-4호),"061-721-9990,9958"
879,남부,전남 순천시 풍덕동 1265-5,(전남 순천시 장평로 50),061-743-9997
880,순천대점,전남 순천시 석현동 80-5,(전남 순천시 순천대2길 30),061-755-9985~4
881,신대,전남 순천시 해룡면 신대리 2019-4,(전남 순천시 해룡면 매안3길 27 1층),061-723-3123
882,연향,전남 순천시 연향동 1351-1,(전남 순천시 연향번영8길 11),"061-724-9912,9913"
883,조례,전남 순천시 조례1동 1687-16,(전남 순천시 봉화2길 36),061-725-9945~6
884,팔마,전남 순천시 연향동 1681-3   1층,"(전남 순천시 팔마4길 28, 1층)",061-721-4994~5
885,국동,전남 여수시 신월동 96-1,(전남 여수시 신월로 570),061-642-9924~5
886,둔덕,전남 여수시 둔덕동 434-7,(전남 여수시 쌍봉로 361),061-653-9795
887,문수,전남 여수시 문수동 124-1,(전남 여수시 문수로 64),061-651-7168
888,신기,전남 여수시 신기동 117-7,(전남 여수시 망마로 81),061-682-9984~5
889,안산,전남 여수시 안산동 470-2,(전남 여수시 도원로 144),061-685-9984
890,여서,전남 여수시 여서동 240-8,(전남 여수시 여문1로 30),061-654-6727~8
891,죽림무선,전남 여수시 소라면 죽림리 1226-3,(전남 여수시 소라면 죽림로 19),061-692-1991
892,영광,전남 영광군 영광읍 남천리 339-4,(전남 영광군 영광읍 천년로13길 3),061-353-9953~4
893,완도,전남 완도군 완도읍 군내리 1237-16 1층,"(전남 완도군 완도읍 개포로114번길 45, 1층)",061-552-9595
894,장흥,전남 장흥군 장흥읍 건산리 736-10,(전남 장흥군 장흥읍 동교2길 23),061-863-1997
895,해남,전남 해남군 해남읍 읍내리 31-2,(전남 해남군 해남읍 읍내길 20번지),061-536-9985~6
896,화순,전남 화순군 화순읍 일심리 755,(전남 화순군 화순읍 광덕로 136),061-375-9283
897,경산,경북 경산시 옥산동 758-10(1층),(경북 경산시 성암로21길 3-1),053-815-9058
898,경산오거리,경북 경산시 중방동 880-23,(경북 경산시 원효로 4),"053-813-9993,9992"
899,계양사동,경북 경산시 사동 663-6,(경북 경산시 백양로33길 13),053-817-9209
900,영대,경북 경산시 압량면 신대리 497,(경북 경산시 압량면 압독2로 22),053-812-9928
901,진량,경북 경산시 진량읍 봉회리 81-3,(경북 경산시 진량읍 봉황길 41),053-856-8282
902,하양,경북 경산시 하양읍 금락리 130-18,(경북 경산시 하양읍 하양로 21),053-854-8010
903,동천,경북 경주시 동천동 791,(경북 경주시 백률로 28-2),054-741-9995~6
904,안강,경북 경주시 안강읍 산대리 2400-2,(경북 경주시 안강읍 구부랑길 43-1),054-763-9959
905,충효,경북 경주시 충효동 3002-1,(경북 경주시 충효중앙길 27),054-749-9945
906,황성,경북 경주시 황성동 893-3,(경북 경주시 용담로116번길 7),054-775-9959
907,도량,경북 구미시 도량동 262-1,(경북 구미시 송동로 66),054-442-0757
908,봉곡,경북 구미시 봉곡동 302-4,(경북 구미시 봉곡남로 87-1),054-458-9988
909,상모,경북 구미시 상모동 42-7,(경북 구미시 상사서로 92),054-465-3738
910,선산,경북 구미시 선산읍 동부리 416,(경북 구미시 선산읍 선산중앙로 98-1),054-482-4870
911,송정,경북 구미시 송정동 38-5 우방타운 206동2호,"(경북 구미시 송원동로 41(송정동,우방타운206동2호))","054-455-5534,2721"
912,신평공단,경북 구미시 신평동 129-2,(경북 구미시 신비로 4),054-463-9222
913,옥계,경북 구미시 옥계동 843-1,(경북 구미시 산호대로25길 29-1),054-475-6060
914,원평,경북 구미시 원평동 84-5,(경북 구미시 원남로 69),054-454-9991
915,원호,경북 구미시 고아읍 원호리 442-2,(경북 구미시 고아읍 문장로 202),054-441-2324
916,인동,경북 구미시 인의동 341-2,(경북 구미시 여헌로 98-1),054-471-8282
917,진평,경북 구미시 진평동 29-5,(경북 구미시 인동26길 20),"054-474-7999,471-1140"
918,형곡,경북 구미시 형곡동 152-7,(경북 구미시 형곡로 108),054-451-1922
919,김천,경북 김천시 신음동 1301-4,"(경북 김천시 신음새동네길 82, 가동)","054-431-3110,435-5384"
920,김천혁신,경북 김천시 율곡동 364,(경북 김천시 혁신4로 5),054-430-0999
921,부곡,경북 김천시 부곡동 426-1,(경북 김천시 김천로 10),054-432-1034
922,점촌,경북 문경시 모전동 866,(경북 문경시 당교로 212),054-556-0044
923,상주,경북 상주시 무양동 213-3,(경북 상주시 상산로 347-2(무양동)),054-532-0380
924,경북도청,경북 안동시 풍천면 갈전리 1325,(경북 안동시 풍천면 풍요4길 36-7),054-857-9990
925,금곡,경북 안동시 당북동 311-8,(경북 안동시 제비원로 135-1),054-841-9295(080-555-9295)
926,송현오거리,경북 안동시 송현동 260-5,(경북 안동시 경동로 347),"054-859-3988,7188"
927,옥동,경북 안동시 옥동 791-2,(경북 안동시 광명로 178),054-843-9982
928,용상,경북 안동시 용상동 1179-188,(경북 안동시 경동로 916-1),"054-822-5888,8299"
929,가흥,경북 영주시 가흥동 1881,(경북 영주시 대학로 187번길 4-1),054-634-2999
930,영주,경북 영주시 휴천동 642-362,(경북 영주시 대동로 165),054-636-3999
931,중앙,경북 영주시 영주2동 536-15,(경북 영주시 구성로 325),054-637-9901~2
932,풍기,경북 영주시 풍기읍 성내리 60,(경북 영주시 풍기읍 기주로81번길 6),054-635-5033
933,영천1호,경북 영천시 망정동175-12,(경북 영천시 호국로 111),054-333-0999
934,울진,경북 울진군 울진읍 읍내리 576-1,(경북 울진군 울진읍 울진중앙로 175),054-781- 5995
935,청도,경북 청도군 청도읍 고수리 503,(경북 청도군 청도읍 청화로 125-1),"054-372-9912,9919"
936,북삼,경북 칠곡군 북삼읍 인평리 246-3,(경북 칠곡군 북삼읍 금오대로 233),"054-973-3655,463-1365"
937,석적,경북 칠곡군 석적읍 중리 203-5,(경북 칠곡군 석적읍 북중리 12길 2),054-977-8800
938,약목,경북 칠곡군 약목면 복성3리 847-18,(경북 칠곡군 약목면 복성3리 847-18),054-974-2007
939,왜관,경북 칠곡군 왜관읍 왜관리 237-19,(경북 칠곡군 왜관읍 중앙로2길 33),054-972-2850
940,구룡포,경북 포항시 남구 구룡포읍 구룡포1리 742,(경북 포항시 남구 구룡포읍 구룡포1리 742),054-276-9114
941,남부,경북 포항시 남구 대도동 124-13,(경북 포항시 남구 문예로 84),054-282-8444
942,대해중앙,경북 포항시 남구 대도동 97-4,(경북 포항시 남구 상공로 156),054-283-9945
943,도구청림,경북 포항시 남구 동해면 도구2리 629,(경북 포항시 남구 동해면 도구2리 629),054-284-9915
944,송도,경북 포항시 남구 해도동 25-28,(경북 포항시 남구 축항로 18),054-272-5525
945,연일,경북 포항시 남구 생지리 157-9,(경북 포항시 남구 연일읍 연일중앙로 37),054-285-8533
946,오천,경북 포항시 남구 오천읍 원리 913-2,(경북 포항시 남구 오천읍 원동로 60),054-292-6660
947,효곡,경북 포항시 남구 효자동 579-2 풍림아이원상가 107호,(경북 포항 남구 효성로 61 풍림아이원상가 107호),054-278-8868
948,양덕,경북 포항시 북구 양덕동 1574,(경북 포항시 북구 천마로 72번길 30),054-256-0077
949,양학대이,경북 포항시 북구 득량동 2-1,(경북 포항시 북구 양학로 22),054-277-9937
950,용흥,경북 포항시 북구 용흥동 373-23,(경북 포항시 북구 새마을로 52),054-242-4568
951,우현,경북 포항시 북구 우현동 100-7,(경북 포항시 북구 중앙로 413-7),"054-251-9979,5525"
952,장성,경북 포항시 북구 장성동 1355-4,(경북 포항시 북구 삼흥로 20),"054-256-0999, 253-4333"
953,죽도,경북 포항시 북구 대흥동 592-2,(경북 포항시 북구 중앙상가 1길 6),054-232-9966~7
954,환호장량,경북 포항시 북구 장성동 1378-3,(경북 포항시 북구 법원로 88),"054-249-9902,9903"
955,흥해,경북 포항시 북구 흥해읍 옥성리 238-5,(경북 포항시 북구 흥해읍 동해대로 1476),054-261-1366
956,고현상동,경남 거제시 고현동 406-18,(경남 거제시 거제중앙로 1804),055-637-0344
957,아주,경남 거제시 아주동 1178-2,(경남 거제시 아주로 68),055-681-1164
958,옥포,경남 거제시 옥포동 160-1,(경남 거제시 옥포로 6길 11),055-688-9277~8
959,장평,경남 거제시 장평동 274,(경남 거제시 장평3로 3길 8),055-635-9982
960,중곡수월,경남 거제시 고현동 997,(경남 거제시 중곡2로 6길 15),055-633-1992
961,거창1호,경남 거창군 거창읍 대동리 697-5,(경남 거창군 거창읍 거열로 197),055-943-9980
962,고성,경남 고성군 고성읍 동외리 345-7,(경남 고성군 고성읍 동외로 130-1),055-674-3652~3
963,구산,경남 김해시 구산동 274-6,(경남 김해시 구산로 20),055-321-5566
964,내동,경남 김해시 내동 138-1,(경남 김해시 평전로 181),055-322-9007
965,대청,경남 김해시 대청동 61-1,(경남 김해시 대청로 210번길 24),055-312-8585
966,부원봉황,경남 김해시 부원동 603-2,(경남 김해시 가락로23번길 7),055-331-2235~6
967,삼계1호,경남 김해시 삼계동 1445-1,(경남 김해시 해반천로 144번길 35-10),055-339-7772~3
968,삼방,경남 김해시 삼방동 691-2 한일상가 108호,(경남 김해시 삼안로 244),055-326-2294
969,삼정,경남 김해시 삼정동 590-1,(경남 김해시 활천로36번길 14),055-331-5569
970,어방,경남 김해시 어방동 523-2,(경남 김해시 인제로 170번길 9-25),"055-321-0101, 321-0589"
971,외동,경남 김해시 외동 1187-12,(경남 김해시 함박로 47),055-325-4777
972,율하,경남 김해시 관동동 1064-6,(경남 김해시 율하2로 3-1),055-323-2388
973,장유1호,경남 김해시 내덕동 220-1 101호,(경남 김해시 금관대로599번길 14-6),055-313-9266~7
974,지내안동,경남 김해시 지내동 67-1,(경남 김해시 김해대로 2725번길 50),055-339-0999
975,진영,경남 김해시 진영읍 진영리 1629-2,(경남 김해시 진영읍 장등로 10번길 12),"055-342-3900,3989"
976,남해,경남 남해군 남해읍 서변리 160-1,(경남 남해군 남해읍 화전로 54-4),055-864-1999
977,내일동,경남 밀양시 내이동 1566-6,(경남 밀양시 백민로 76-1),055-355-3377
978,삼문상남,경남 밀양시 삼문동 533-17,(경남 밀양시 밀양대로 1795),"055-355-9920,9964"
979,동금,"경남 사천시 동금동 141-8,9번지",(경남 사천시 중앙로 81-1),055-832-9989
980,벌용,경남 사천시 벌리동 255-9,(경남 사천시 벌리9길 35),055-835-6664
981,사천,경남 사천시 사천읍 수석리 293-23,(경남 사천시 사천읍 진삼로 1433-2),055-852-0991
982,덕계,경남 양산시 덕계동 750,(경남 양산시 덕계로 51),055-910-9995
983,물금,경남 양산시 물금읍 범어리 2682-10,(경남 양산시 물금읍 화합9길 9),055-387-9984
984,삼성,경남 양산시 북정동 885-12,(경남 양산시 북정로 25),055-366-9289
985,상북,경남 양산시 상북면 석계리 242-1,(경남 양산시 상북면 반회서5길 11),"055-375-9595,5824"
986,서창1호,경남 양산시 삼호동 707-2,(경남 양산시 삼호로 180),"055-363-5757,8292"
987,석산,경남 양산시 동면 금산리 1422-14,(경남 양산시 동면 금오2길 50),055-384-2992
988,중앙,경남 양산시 중부동 684-6,(경남 양산시 양주2길 37 1층),055-384-9985
989,증산,경남 양산시 물금읍 가촌리 1269-3,(경남 양산시 물금읍 물금로 182),055-375-8888
990,통도사,경남 양산시 하북면 순지리 814-5,(경남 양산시 하북면 통도사로 54),055-381-7776
991,가호,경남 진주시 가좌동 1431-2,(경남 진주시 가좌길84번길 4),055-761-0226
992,금산,경남 진주시 금산면 장사리 1022-1,(경남 진주시 금산면 금산순환로 42-1),055-762-2241~2
993,상대,경남 진주시 상대동 238-3,(경남 진주시 상대로 24),055-761-0430
994,상봉중앙,경남 진주시 중안동 2-11,(경남 진주시 촉석로 171-1),"055-748-2280,2285"
995,상평,경남 진주시 상평동 198-43,(경남 진주시 돗골로 96),"055-755-4452,3839"
996,신안평거,경남 진주시 신안동 460-1,(경남 진주시 평거로126번길 6),"055-747-0884, 0270"
997,이현인사,경남 진주시 인사동 152-5,(경남 진주시 진양호로 432),"055-745-9245,7896"
998,칠암망경,경남 진주시 칠암동 491-47,(경남 진주시 동진로 20번길 11),055-757-0313
999,판문평거,경남 진주시 평거동 733-1번지,(경남 진주시 진양호로123번길 6),055-748-6036~7
1000,하대초전,경남 진주시 하대동 306-38,(경남 진주시 하대로 107),055-761-5511
1001,혁신,경남 진주시 충무공동 38-1 뽀빠이프라자 1층 113호,(경남 진주시 에나로 103-5 뽀빠이프라자 1층 113호),055-762-5933
1002,남지,경남 창녕군 남지읍 남지리 994-7,(경남 창녕군 남지읍 남지중앙로 102-1),055-536-1993
1003,창녕,경남 창녕군 창녕읍 송현리 238-1,(경남 창녕군 창녕읍 종로 62번지),055-533-9280~1
1004,문화중앙,경남 창원시 마산합포구 중앙동2가 5-42번지,(경남 창원시 마산합포구 3·15대로 155),055-243-9245
1005,월영,경남 창원시 마산합포구 해운동 42-11,(경남 창원시 마산합포구 월영동로 9),055-223-9974
1006,자산교방,경남 창원시 마산합포구 자산동 301-19,(경남 창원시 마산합포구 자산삼거리로 5-1),055-246-1992
1007,진동,경남 창원시 마산합포구 진동면 진동리 436,(경남 창원시 마산합포구 진동면 진동사동로 16),055-271-0077
1008,창동산호,경남 창원시 마산합포구 산호동 338-35,(경남 창원시 마산합포구 합포로 120),055-247-3501~2
1009,내서삼계,경남 창원시 마산회원구 삼계리 35-14,(경남 창원시 마산회원구 내서읍 삼풍로 61),055-231-9982
1010,양덕,경남 창원시 마산회원구 양덕2동 73-35,(경남 창원시 마산회원구 양덕서8길 53),055-295-9997
1011,합성,경남 창원시 마산회원구 합성2동 131-7,(경남 창원시 마산회원구 합성옛길 273),055-299-9782
1012,호계,경남 창원시 마산회원구 내서읍 호계리 289-45,(경남 창원시 마산회원구 내서읍 호원로 239),055-231-2321
1013,대방,경남 창원시 성산구 성주동 100,(경남 창원시 성산구 대암로 247),055-275-5258
1014,반송,경남 창원시 성산구 반지동 55-18,(경남 창원시 성산구 반송로81번길 2),055-237-9902~3
1015,중앙,경남 창원시 성산구 중앙동 100-1,(경남 창원시 성산구 중앙대로 61번길 3),"055-261-9149, 9949"
1016,감계,경남 창원시 의창구 북면 감계리 246-4,(경남 창원시 의창구 북면 감계로 110번길 47-1),055-252-1992
1017,도계명서,경남 창원시 의창구 도계동 352-3 1층,"(경남 창원시 의창구 도계로60번길 5-6, 1층)",055-276-9945~6
1018,동읍,경남 창원시 의창구 동읍 용잠리 371-2,(경남 창원시 의창구 동읍 의창대로 860),"055-291-8400,8660"
1019,봉곡사림,경남 창원시 의창구 봉곡동 132-18,(경남 창원시 의창구 봉곡로 118 (봉곡동)),055-277-9661
1020,사파,경남 창원시 의창구 사파동 113-16,(경남 창원시 성산구 신사로 103),055-286-9945~6
1021,용지호수,경남 창원시 의창구 용호동 73-50,(경남 창원시 의창구 용지로 153번길 7),055-274-1099
1022,중동소답,경남 창원시 의창구 서상동 666-6,(경남 창원시 의창구 의창대로254번길 9),055-295-9292
1023,팔용,경남 창원시 의창구 팔용동 183-10,(경남 창원시 의창구 남산로1번길 30),055-253-9901
1024,석동덕산,경남 창원시 진해구 석동 139-6,(경남 창원시 진해구 냉천로 70-1),055-543-9992
1025,웅동용원,경남 창원시 진해구 용원동 1214-11,(경남 창원시 진해구 용원로 31 (용원동)),055-551-9989
1026,태평,경남 창원시 진해구 수송동 12-11,(경남 창원시 진해구 충무로 68),055-545-9010
1027,풍호,경남 창원시 진해구 풍호동 305-17,(경남 창원시 진해구 충장로657번길 35 창원마린푸르지오2단),055-541-1991
1028,미수봉평,경남 통영시 미수동 22-1번지 운하상가 115호,"(경남 통영시 운하1길 25, 천우운하맨션 상가 115호)",055-643-8222
1029,북신무전,경남 통영시 북신동 693-7,(경남 통영시 원문로 30),055-646-7879
1030,죽림,경남 통영시 광도면 죽림리 1574-57 가동 103호,"(경남 통영시 광도면 죽림2로 77, 가동 103호)",055-642-9991
1031,함안,경남 함안군 가야읍 말산리 58-16,(경남 함안군 가야읍 가야로 90),"055-583-9989,9949"
1032,함양,경남 함양군 함양읍 용평리 773-1,(경남 함양군 함양읍 함양로 1111-1),"055-964-2223, 2225"
1033,합천,경남 합천군 합천읍 합천리 320-3,(경남 합천군 합천읍 대야로 869),055-931-9941
1034,대정,제주 서귀포시 대정읍 하모리 1048-4,(제주 서귀포시 대정읍 신영로 73),064-794-9930
1035,서귀포1호,제주 서귀포시 동흥동 117-6,(제주 서귀포시 일주동로 8584),064-732-9982
1036,서귀포명동,제주 서귀포시 서귀동 408-3,(제주 서귀포시 명동로 29(서귀동)),064-713-9982
1037,서귀포혁신도시,제주 서귀포시 강정동 166-10,(제주 서귀포시 신서귀로97길 55),064-739-9931
1038,월드컵경기장,제주 서귀포시 법환동 914,(제주 서귀포시 월드컵로 31),064-739-8192
1039,중문,제주 서귀포시 중문동 1965-9,(제주 서귀포시 천제연로 215),064-738-9996
1040,건입,제주 제주시 일도2동 160-9,(제주 제주시 고마로 29),064-752-8989
1041,노형,제주 제주시 노형동 1055-1,(제주 제주시 월랑로 35),064-749-1991
1042,도두해안도로,제주 제주시 도두1동 2625-4,(제주 제주시 서해안로 160-1 1층),064-902-3210
1043,삼양화북,제주 제주시 화북1동 1023-2,(제주 제주시 화삼북로2길 32),064-726-4900~1
1044,애월하귀,제주 제주시 애월읍 하귀1리 167,(제주 제주시 애월읍 하귀9길 45),064-742-1992
1045,외도도평,제주 제주시 외도1동 550-9,(제주 제주시 우정로15길 31),064-746-2600
1046,용담삼도,제주 제주시 용담2동 624-10 1층,(제주 제주시 용화로 63),064-744-0991
1047,이도일도,제주 제주시 이도이동 1179-18,(제주 제주시 광양 13길 3),064-756-5592
1048,제주1호,제주 제주시  연동 272-30,(제주 제주시 삼무로 50),"064-711-0331,711-0991"
1049,탑동,제주 제주시 삼도이동 1192-22,(제주 제주시 탑동로 21),064-723-9942~3
1050,한림협재,제주 제주시 한림읍 한림리 1582-8,(제주 제주시 한림읍 한림중앙로 47),064-796-9995
